{
"type": "FeatureCollection",
"name": "yongin_yubang_parcels",
"crs": { "type": "name", "properties": { "name": "urn:ogc:def:crs:EPSG::5179" } },
"features": [
{ "type": "Feature", "properties": { "pnu": "4146110500100780003", "jibun": "78-3답", "addr": "경기도 용인시 처인구 유방동 78-3", "gosi_year": "2025" }, "geometry": { "type": "MultiPolygon", "coordinates": [ [ [ [ 973873.699209842132404, 1917811.450392105150968 ], [ 973874.382782281376421, 1917811.987570363795385 ], [ 973870.826258243992925, 1917813.70769475819543 ], [ 973875.21838913531974, 1917815.948610791005194 ], [ 973883.733531560748816, 1917817.17113537248224 ], [ 973894.5067609755788, 1917820.468918101862073 ], [ 973899.877841881476343, 1917814.068028853740543 ], [ 973902.098989652469754, 1917811.421322620939463 ], [ 973906.343893965240568, 1917808.310102708637714 ], [ 973914.23546481935773, 1917802.187785329064354 ], [ 973926.822239946108311, 1917797.77498973114416 ], [ 973931.73206053103786, 1917792.993907056516036 ], [ 973932.133716146927327, 1917790.119904679246247 ], [ 973926.606540815671906, 1917792.896031301468611 ], [ 973921.970021911663935, 1917796.051303424639627 ], [ 973911.911846000351943, 1917798.682430869434029 ], [ 973902.709072128403932, 1917804.101951319491491 ], [ 973894.751593629829586, 1917805.695382133824751 ], [ 973886.070451259380206, 1917805.785223186947405 ], [ 973884.878946238080971, 1917804.844886328326538 ], [ 973874.894594005774707, 1917810.854307318571955 ], [ 973873.699209842132404, 1917811.450392105150968 ] ] ] ] } },
{ "type": "Feature", "properties": { "pnu": "4146110500101400001", "jibun": "140-1전", "addr": "경기도 용인시 처인구 유방동 140-1", "gosi_year": "2025" }, "geometry": { "type": "MultiPolygon", "coordinates": [ [ [ [ 973966.668368607526645, 1917924.49302337365225 ], [ 973958.613373265485279, 1917927.684347568079829 ], [ 973943.330245434073731, 1917921.802407174138352 ], [ 973941.65088446973823, 1917924.827103085117415 ], [ 973947.60655726888217, 1917930.313490514177829 ], [ 973954.001370644546114, 1917939.454132806509733 ], [ 973957.634470801916905, 1917940.876378494780511 ], [ 973962.81416329019703, 1917942.903215168276802 ], [ 973967.529072613222525, 1917944.747579212998971 ], [ 973977.275836142478511, 1917942.961766400840133 ], [ 973985.679423123016022, 1917941.421956094680354 ], [ 973989.935291309142485, 1917933.763450689380988 ], [ 973991.257208617054857, 1917931.385391803458333 ], [ 974006.184052873984911, 1917933.213794988114387 ], [ 974012.686357473139651, 1917938.292452227557078 ], [ 974017.256289034965448, 1917940.887289800448343 ], [ 974019.04195251443889, 1917941.901457673171535 ], [ 974020.388902217615396, 1917940.099042066605762 ], [ 974012.89330945268739, 1917934.324905351735651 ], [ 974000.332567679462954, 1917926.067504376871511 ], [ 973990.72606470703613, 1917918.830093351425603 ], [ 973979.549990749568678, 1917923.479343021987006 ], [ 973966.668368607526645, 1917924.49302337365225 ] ] ] ] } },
{ "type": "Feature", "properties": { "pnu": "4146110500100760006", "jibun": "76-6전", "addr": "경기도 용인시 처인구 유방동 76-6", "gosi_year": "2025" }, "geometry": { "type": "MultiPolygon", "coordinates": [ [ [ [ 973991.109957845066674, 1917750.613642920041457 ], [ 973983.945614604977891, 1917755.886447451077402 ], [ 973978.899153839913197, 1917767.348647205391899 ], [ 973971.768018553149886, 1917772.66326015163213 ], [ 973967.383103307452984, 1917778.978970400756225 ], [ 973960.765893463627435, 1917805.132744264556095 ], [ 973961.901240935432725, 1917813.040661840466782 ], [ 973960.579714698484167, 1917818.520509409951046 ], [ 973997.899990708916448, 1917818.108447926584631 ], [ 973996.863939063739963, 1917813.480727093527094 ], [ 973990.519509847043082, 1917813.499247576342896 ], [ 973993.621767376782373, 1917801.287614105502144 ], [ 974005.106488841935061, 1917758.369654364185408 ], [ 974000.378576214658096, 1917755.766653874190524 ], [ 973994.196330237551592, 1917752.425626562908292 ], [ 973991.109957845066674, 1917750.613642920041457 ] ] ] ] } },
{ "type": "Feature", "properties": { "pnu": "4146110500100760003", "jibun": "76-3장", "addr": "경기도 용인시 처인구 유방동 76-3", "gosi_year": "2025" }, "geometry": { "type": "MultiPolygon", "coordinates": [ [ [ [ 973961.912450942560099, 1917827.65190694318153 ], [ 973959.01624831254594, 1917825.129195528570563 ], [ 973951.494581129751168, 1917830.69277580967173 ], [ 973944.543509735492989, 1917835.843501686584204 ], [ 973931.401499585947022, 1917845.469200125429779 ], [ 973933.818681632517837, 1917849.088015641085804 ], [ 973951.315222356352024, 1917836.288542417809367 ], [ 973954.320224242052063, 1917834.050534548703581 ], [ 973961.912450942560099, 1917827.65190694318153 ] ] ] ] } },
{ "type": "Feature", "properties": { "pnu": "4146110500100760009", "jibun": "76-9전", "addr": "경기도 용인시 처인구 유방동 76-9", "gosi_year": "2025" }, "geometry": { "type": "MultiPolygon", "coordinates": [ [ [ [ 973971.457003447692841, 1917868.387588070938364 ], [ 973973.587182233342901, 1917858.360239816829562 ], [ 973966.34762904420495, 1917860.938493096269667 ], [ 973960.687331198249012, 1917862.924631420290098 ], [ 973951.851814825669862, 1917837.95405748160556 ], [ 973951.315222356352024, 1917836.288542417809367 ], [ 973933.818681632517837, 1917849.088015641085804 ], [ 973931.401499585947022, 1917845.469200125429779 ], [ 973923.674951155320741, 1917850.85093422466889 ], [ 973916.728005403769203, 1917852.808883057907224 ], [ 973912.645833097398281, 1917856.449037045240402 ], [ 973916.507194738369435, 1917865.128248349763453 ], [ 973920.775693696457893, 1917880.675630974350497 ], [ 973922.995077732251957, 1917893.400942429667339 ], [ 973937.355341997346841, 1917886.751644971780479 ], [ 973964.090216447832063, 1917874.885985726024956 ], [ 973971.457003447692841, 1917868.387588070938364 ] ] ] ] } },
{ "type": "Feature", "properties": { "pnu": "4146110500100750000", "jibun": "75전", "addr": "경기도 용인시 처인구 유방동 75", "gosi_year": "2025" }, "geometry": { "type": "MultiPolygon", "coordinates": [ [ [ [ 973826.039578224415891, 1917848.879668117966503 ], [ 973829.494274863391183, 1917846.806219377089292 ], [ 973836.363131415331736, 1917843.690134370932356 ], [ 973844.525974315940402, 1917838.963838681578636 ], [ 973847.396825508680195, 1917835.551996955648065 ], [ 973831.104578725527972, 1917839.602516594575718 ], [ 973821.89705415267963, 1917842.609003220219165 ], [ 973826.039578224415891, 1917848.879668117966503 ] ] ] ] } },
{ "type": "Feature", "properties": { "pnu": "4146110500100710013", "jibun": "71-13전", "addr": "경기도 용인시 처인구 유방동 71-13", "gosi_year": "2025" }, "geometry": { "type": "MultiPolygon", "coordinates": [ [ [ [ 973792.433730507735163, 1917855.324751013889909 ], [ 973779.456297574215569, 1917872.830511388368905 ], [ 973785.645663950941525, 1917872.409966642968357 ], [ 973806.214594494784251, 1917868.614745936822146 ], [ 973804.577341499272734, 1917856.714035290991887 ], [ 973804.674588996218517, 1917852.0373435751535 ], [ 973792.433730507735163, 1917855.324751013889909 ] ] ] ] } },
{ "type": "Feature", "properties": { "pnu": "4146110500100710014", "jibun": "71-14도", "addr": "경기도 용인시 처인구 유방동 71-14", "gosi_year": "2011" }, "geometry": { "type": "MultiPolygon", "coordinates": [ [ [ [ 973799.138314361334778, 1917846.278844385640696 ], [ 973797.881766474805772, 1917847.974824008764699 ], [ 973804.715239401091821, 1917850.08189065894112 ], [ 973804.790921136154793, 1917846.431912945816293 ], [ 973804.548953482415527, 1917846.420196218881756 ], [ 973799.138314361334778, 1917846.278844385640696 ] ] ] ] } },
{ "type": "Feature", "properties": { "pnu": "4146110500100710001", "jibun": "71-1대", "addr": "경기도 용인시 처인구 유방동 71-1", "gosi_year": "2025" }, "geometry": { "type": "MultiPolygon", "coordinates": [ [ [ [ 973715.131661031395197, 1917892.189902781974524 ], [ 973717.812978110276163, 1917891.879853686550632 ], [ 973725.502959496458061, 1917891.118511255364865 ], [ 973731.922935286187567, 1917891.776327612577006 ], [ 973735.676848414121196, 1917896.956471468321979 ], [ 973738.632410274469294, 1917902.389735678210855 ], [ 973759.923849930753931, 1917896.662448602728546 ], [ 973764.719669976388104, 1917890.737412715097889 ], [ 973766.87114063964691, 1917882.091411374043673 ], [ 973765.149562128121033, 1917874.664402870694175 ], [ 973760.925207531312481, 1917868.609086154028773 ], [ 973750.525029004667886, 1917873.864000195637345 ], [ 973732.382137859705836, 1917882.008705998305231 ], [ 973715.131661031395197, 1917892.189902781974524 ] ] ] ] } },
{ "type": "Feature", "properties": { "pnu": "4146110500100710012", "jibun": "71-12전", "addr": "경기도 용인시 처인구 유방동 71-12", "gosi_year": "2025" }, "geometry": { "type": "MultiPolygon", "coordinates": [ [ [ [ 973765.149562128121033, 1917874.664402870694175 ], [ 973771.603861479554325, 1917873.493750287918374 ], [ 973779.456297574215569, 1917872.830511388368905 ], [ 973792.433730507735163, 1917855.324751013889909 ], [ 973786.73503346031066, 1917856.854270566254854 ], [ 973768.368433231371455, 1917864.848216661252081 ], [ 973760.925207531312481, 1917868.609086154028773 ], [ 973765.149562128121033, 1917874.664402870694175 ] ] ] ] } },
{ "type": "Feature", "properties": { "pnu": "4146110500100760005", "jibun": "76-5전", "addr": "경기도 용인시 처인구 유방동 76-5", "gosi_year": "2025" }, "geometry": { "type": "MultiPolygon", "coordinates": [ [ [ [ 973947.306118928478099, 1917779.015053948387504 ], [ 973939.114114387892187, 1917783.708515439881012 ], [ 973933.939597018645145, 1917793.825916858157143 ], [ 973928.919358525658026, 1917799.655174517072737 ], [ 973915.376606107922271, 1917804.190974198048934 ], [ 973903.811780842021108, 1917812.832721107173711 ], [ 973895.025496568763629, 1917822.349443851737306 ], [ 973896.108699264121242, 1917822.467673535924405 ], [ 973904.821001922828145, 1917827.519663584185764 ], [ 973919.570702088298276, 1917817.76451967144385 ], [ 973928.435030231368728, 1917828.50948721729219 ], [ 973940.955197936971672, 1917818.48922899318859 ], [ 973951.494581129751168, 1917830.69277580967173 ], [ 973959.01624831254594, 1917825.129195528570563 ], [ 973960.579714698484167, 1917818.520509409951046 ], [ 973961.901240935432725, 1917813.040661840466782 ], [ 973960.765893463627435, 1917805.132744264556095 ], [ 973967.383103307452984, 1917778.978970400756225 ], [ 973971.768018553149886, 1917772.66326015163213 ], [ 973978.899153839913197, 1917767.348647205391899 ], [ 973983.945614604977891, 1917755.886447451077402 ], [ 973982.189130940590985, 1917757.179225605679676 ], [ 973966.078860631561838, 1917769.564532571472228 ], [ 973962.351947547169402, 1917770.063033257378265 ], [ 973960.441308499313891, 1917771.693494495702907 ], [ 973953.097595360362902, 1917775.747722316300496 ], [ 973947.306118928478099, 1917779.015053948387504 ] ] ] ] } },
{ "type": "Feature", "properties": { "pnu": "4146110500100690000", "jibun": "69대", "addr": "경기도 용인시 처인구 유방동 69", "gosi_year": "2025" }, "geometry": { "type": "MultiPolygon", "coordinates": [ [ [ [ 973818.760479437769391, 1917899.226517374161631 ], [ 973810.879950884846039, 1917901.00547027005814 ], [ 973808.157333317794837, 1917890.658889858052135 ], [ 973822.214303287211806, 1917885.82348773535341 ], [ 973820.807139352662489, 1917876.416589565109462 ], [ 973820.841772327199578, 1917868.023676926037297 ], [ 973820.783158789039589, 1917865.254065915709361 ], [ 973817.096752180019394, 1917866.986871965928003 ], [ 973813.201188415871002, 1917868.86372731695883 ], [ 973806.214594494784251, 1917868.614745936822146 ], [ 973785.645663950941525, 1917872.409966642968357 ], [ 973779.456297574215569, 1917872.830511388368905 ], [ 973785.017851592507213, 1917910.244543230393901 ], [ 973799.368511755950749, 1917911.995022483635694 ], [ 973815.786021949374117, 1917911.977268049959093 ], [ 973820.785826131352223, 1917910.984232570976019 ], [ 973818.760479437769391, 1917899.226517374161631 ] ] ] ] } },
{ "type": "Feature", "properties": { "pnu": "4146110500100690003", "jibun": "69-3전", "addr": "경기도 용인시 처인구 유방동 69-3", "gosi_year": "2025" }, "geometry": { "type": "MultiPolygon", "coordinates": [ [ [ [ 973779.456297574215569, 1917872.830511388368905 ], [ 973771.603861479554325, 1917873.493750287918374 ], [ 973765.149562128121033, 1917874.664402870694175 ], [ 973766.87114063964691, 1917882.091411374043673 ], [ 973764.719669976388104, 1917890.737412715097889 ], [ 973759.923849930753931, 1917896.662448602728546 ], [ 973762.85662504110951, 1917899.863702706526965 ], [ 973769.580746716586873, 1917904.545343888690695 ], [ 973770.971307810745202, 1917905.321692732395604 ], [ 973778.84966549591627, 1917909.56540476041846 ], [ 973785.017851592507213, 1917910.244543230393901 ], [ 973779.456297574215569, 1917872.830511388368905 ] ] ] ] } },
{ "type": "Feature", "properties": { "pnu": "4146110500100760001", "jibun": "76-1답", "addr": "경기도 용인시 처인구 유방동 76-1", "gosi_year": "2025" }, "geometry": { "type": "MultiPolygon", "coordinates": [ [ [ [ 973895.025496568763629, 1917822.349443851737306 ], [ 973890.191185435513034, 1917825.718678161734715 ], [ 973873.48624827619642, 1917839.258680160157382 ], [ 973867.297363230376504, 1917844.122490458656102 ], [ 973860.412611704086885, 1917848.771062178304419 ], [ 973855.661445354809985, 1917852.173844156321138 ], [ 973852.173700265120715, 1917855.371029697125778 ], [ 973848.600719218724407, 1917858.138832964468747 ], [ 973846.970786170568317, 1917865.032760112779215 ], [ 973849.478375935694203, 1917872.330664415610954 ], [ 973849.67128528712783, 1917872.8954248779919 ], [ 973860.264831431908533, 1917870.184498284710571 ], [ 973869.14682684186846, 1917868.189337634947151 ], [ 973878.724012513295747, 1917868.173731781542301 ], [ 973888.507468673866242, 1917865.386116175213829 ], [ 973897.537466575391591, 1917862.645464063389227 ], [ 973902.345335343270563, 1917858.433697768952698 ], [ 973906.890460887574591, 1917851.223488695453852 ], [ 973907.547828771290369, 1917850.963116202503443 ], [ 973911.373263985617086, 1917850.192200709600002 ], [ 973913.58790059981402, 1917843.852968028746545 ], [ 973913.073407307267189, 1917839.369434429332614 ], [ 973906.853601534850895, 1917828.918377006193623 ], [ 973904.821001922828145, 1917827.519663584185764 ], [ 973896.108699264121242, 1917822.467673535924405 ], [ 973895.025496568763629, 1917822.349443851737306 ] ] ] ] } },
{ "type": "Feature", "properties": { "pnu": "4146110500100740002", "jibun": "74-2답", "addr": "경기도 용인시 처인구 유방동 74-2", "gosi_year": "2025" }, "geometry": { "type": "MultiPolygon", "coordinates": [ [ [ [ 973862.94523539650254, 1917844.534329346613958 ], [ 973871.95659927080851, 1917838.266150566516444 ], [ 973877.514521204517223, 1917833.930468815378845 ], [ 973894.5067609755788, 1917820.468918101862073 ], [ 973883.733531560748816, 1917817.17113537248224 ], [ 973875.21838913531974, 1917815.948610791005194 ], [ 973870.826258243992925, 1917813.70769475819543 ], [ 973866.279888434452005, 1917817.276329630985856 ], [ 973855.037133386009373, 1917822.927540617296472 ], [ 973847.214509366662242, 1917825.638823481975123 ], [ 973840.519130978151225, 1917828.101246278034523 ], [ 973820.791766974725761, 1917836.039404184557498 ], [ 973821.659246452967636, 1917842.249400058528408 ], [ 973821.89705415267963, 1917842.609003220219165 ], [ 973831.104578725527972, 1917839.602516594575718 ], [ 973847.396825508680195, 1917835.551996955648065 ], [ 973849.991534488624893, 1917835.688231790205464 ], [ 973856.66752885223832, 1917842.045474485028535 ], [ 973862.94523539650254, 1917844.534329346613958 ] ] ] ] } },
{ "type": "Feature", "properties": { "pnu": "4146110500100740001", "jibun": "74-1전", "addr": "경기도 용인시 처인구 유방동 74-1", "gosi_year": "2025" }, "geometry": { "type": "MultiPolygon", "coordinates": [ [ [ [ 973862.94523539650254, 1917844.534329346613958 ], [ 973856.66752885223832, 1917842.045474485028535 ], [ 973849.991534488624893, 1917835.688231790205464 ], [ 973847.396825508680195, 1917835.551996955648065 ], [ 973844.525974315940402, 1917838.963838681578636 ], [ 973836.363131415331736, 1917843.690134370932356 ], [ 973829.494274863391183, 1917846.806219377089292 ], [ 973826.039578224415891, 1917848.879668117966503 ], [ 973828.764320998918265, 1917853.005661125294864 ], [ 973838.07497164036613, 1917856.275183879537508 ], [ 973837.699180261348374, 1917857.043870253255591 ], [ 973845.980980659136549, 1917856.481323223095387 ], [ 973849.616328658652492, 1917854.166014055488631 ], [ 973853.27456945553422, 1917850.88595980941318 ], [ 973862.94523539650254, 1917844.534329346613958 ] ] ] ] } },
{ "type": "Feature", "properties": { "pnu": "4146110500100760004", "jibun": "76-4잡", "addr": "경기도 용인시 처인구 유방동 76-4", "gosi_year": "2025" }, "geometry": { "type": "MultiPolygon", "coordinates": [ [ [ [ 973931.401499585947022, 1917845.469200125429779 ], [ 973944.543509735492989, 1917835.843501686584204 ], [ 973951.494581129751168, 1917830.69277580967173 ], [ 973940.955197936971672, 1917818.48922899318859 ], [ 973928.435030231368728, 1917828.50948721729219 ], [ 973919.570702088298276, 1917817.76451967144385 ], [ 973904.821001922828145, 1917827.519663584185764 ], [ 973906.853601534850895, 1917828.918377006193623 ], [ 973913.073407307267189, 1917839.369434429332614 ], [ 973913.58790059981402, 1917843.852968028746545 ], [ 973911.373263985617086, 1917850.192200709600002 ], [ 973907.547828771290369, 1917850.963116202503443 ], [ 973906.890460887574591, 1917851.223488695453852 ], [ 973910.683349743485451, 1917852.23904886469245 ], [ 973912.645833097398281, 1917856.449037045240402 ], [ 973916.728005403769203, 1917852.808883057907224 ], [ 973923.674951155320741, 1917850.85093422466889 ], [ 973931.401499585947022, 1917845.469200125429779 ] ] ] ] } },
{ "type": "Feature", "properties": { "pnu": "4146110500103670003", "jibun": "367-3답", "addr": "경기도 용인시 처인구 유방동 367-3", "gosi_year": "2025" }, "geometry": { "type": "MultiPolygon", "coordinates": [ [ [ [ 975010.249440826941282, 1917309.359501983970404 ], [ 975012.364571186364628, 1917309.351325983181596 ], [ 975019.364715475821868, 1917244.983502327697352 ], [ 975003.130920071620494, 1917249.309589836746454 ], [ 975003.304433370474726, 1917256.421892461832613 ], [ 975004.601764220977202, 1917309.381333158817142 ], [ 975010.249440826941282, 1917309.359501983970404 ] ] ] ] } },
{ "type": "Feature", "properties": { "pnu": "4146110500100770001", "jibun": "77-1답", "addr": "경기도 용인시 처인구 유방동 77-1", "gosi_year": "2025" }, "geometry": { "type": "MultiPolygon", "coordinates": [ [ [ [ 973947.302316174842417, 1917777.159797209315002 ], [ 973951.229119300143793, 1917774.195201500086114 ], [ 973958.547119862865657, 1917770.571941641392186 ], [ 973945.090868093422614, 1917772.370350592769682 ], [ 973928.65086139109917, 1917784.213612112915143 ], [ 973909.813413687632419, 1917791.444341284455732 ], [ 973891.954688706900924, 1917800.587153416592628 ], [ 973884.878946238080971, 1917804.844886328326538 ], [ 973886.070451259380206, 1917805.785223186947405 ], [ 973894.751593629829586, 1917805.695382133824751 ], [ 973902.709072128403932, 1917804.101951319491491 ], [ 973911.911846000351943, 1917798.682430869434029 ], [ 973921.970021911663935, 1917796.051303424639627 ], [ 973926.606540815671906, 1917792.896031301468611 ], [ 973932.133716146927327, 1917790.119904679246247 ], [ 973937.354125349083915, 1917783.013087322702631 ], [ 973947.302316174842417, 1917777.159797209315002 ] ] ] ] } },
{ "type": "Feature", "properties": { "pnu": "4146110500100760008", "jibun": "76-8도", "addr": "경기도 용인시 처인구 유방동 76-8", "gosi_year": "2025" }, "geometry": { "type": "MultiPolygon", "coordinates": [ [ [ [ 973961.912450942560099, 1917827.65190694318153 ], [ 973954.320224242052063, 1917834.050534548703581 ], [ 973951.315222356352024, 1917836.288542417809367 ], [ 973951.851814825669862, 1917837.95405748160556 ], [ 973964.918750301236287, 1917830.201026204507798 ], [ 973961.912450942560099, 1917827.65190694318153 ] ] ] ] } },
{ "type": "Feature", "properties": { "pnu": "4146110500100760007", "jibun": "76-7대", "addr": "경기도 용인시 처인구 유방동 76-7", "gosi_year": "2025" }, "geometry": { "type": "MultiPolygon", "coordinates": [ [ [ [ 973964.918750301236287, 1917830.201026204507798 ], [ 973951.851814825669862, 1917837.95405748160556 ], [ 973960.687331198249012, 1917862.924631420290098 ], [ 973966.34762904420495, 1917860.938493096269667 ], [ 973973.587182233342901, 1917858.360239816829562 ], [ 973974.920946099213324, 1917852.926309681031853 ], [ 973979.657050904235803, 1917843.077120646135882 ], [ 973964.918750301236287, 1917830.201026204507798 ] ] ] ] } },
{ "type": "Feature", "properties": { "pnu": "4146110500100760002", "jibun": "76-2장", "addr": "경기도 용인시 처인구 유방동 76-2", "gosi_year": "2025" }, "geometry": { "type": "MultiPolygon", "coordinates": [ [ [ [ 973964.918750301236287, 1917830.201026204507798 ], [ 973979.657050904235803, 1917843.077120646135882 ], [ 973983.473288423148915, 1917835.45592435146682 ], [ 973988.947543882881291, 1917835.151113875675946 ], [ 973993.471293812268414, 1917837.708210790995508 ], [ 974002.028147759148851, 1917840.204018218675628 ], [ 974010.733604064909741, 1917843.581696484703571 ], [ 974011.205651622731239, 1917835.299430857179686 ], [ 974010.179020717041567, 1917829.238219251390547 ], [ 974005.325075818807818, 1917828.512153453892097 ], [ 974000.487920861807652, 1917829.261423789896071 ], [ 973997.899990708916448, 1917818.108447926584631 ], [ 973960.579714698484167, 1917818.520509409951046 ], [ 973959.01624831254594, 1917825.129195528570563 ], [ 973961.912450942560099, 1917827.65190694318153 ], [ 973964.918750301236287, 1917830.201026204507798 ] ] ] ] } },
{ "type": "Feature", "properties": { "pnu": "4146110500101390000", "jibun": "139전", "addr": "경기도 용인시 처인구 유방동 139", "gosi_year": "2025" }, "geometry": { "type": "MultiPolygon", "coordinates": [ [ [ [ 973971.457003447692841, 1917868.387588070938364 ], [ 973964.090216447832063, 1917874.885985726024956 ], [ 973937.355341997346841, 1917886.751644971780479 ], [ 973922.995077732251957, 1917893.400942429667339 ], [ 973913.945448677404784, 1917895.452966869110242 ], [ 973903.008581855101511, 1917892.400954047683626 ], [ 973904.05052701884415, 1917896.251946796663105 ], [ 973906.842638909001835, 1917899.695849122712389 ], [ 973913.759902828955092, 1917902.905042854836211 ], [ 973916.721927861100994, 1917904.452786288224161 ], [ 973923.221401507151313, 1917907.860110610723495 ], [ 973924.931540986057371, 1917909.526423579547554 ], [ 973931.27777711476665, 1917916.094325626501814 ], [ 973938.040190620697103, 1917919.888109611812979 ], [ 973943.330245434073731, 1917921.802407174138352 ], [ 973958.613373265485279, 1917927.684347568079829 ], [ 973966.668368607526645, 1917924.49302337365225 ], [ 973966.878847471321933, 1917924.409943458624184 ], [ 973980.475492650526576, 1917919.101158781442791 ], [ 973977.292258471483365, 1917913.14530301396735 ], [ 973977.009756817365997, 1917907.541980323148891 ], [ 973973.925694284494966, 1917897.652133907424286 ], [ 973972.383035943727009, 1917890.223182365996763 ], [ 973972.66372400149703, 1917881.291180845815688 ], [ 973972.645748989540152, 1917881.105348319746554 ], [ 973971.457003447692841, 1917868.387588070938364 ] ] ] ] } },
{ "type": "Feature", "properties": { "pnu": "4146110500100670001", "jibun": "67-1전", "addr": "경기도 용인시 처인구 유방동 67-1", "gosi_year": "2025" }, "geometry": { "type": "MultiPolygon", "coordinates": [ [ [ [ 973883.309499096823856, 1917917.992083495017141 ], [ 973895.224583309725858, 1917927.212522456655279 ], [ 973901.352805026108399, 1917928.084796622162685 ], [ 973906.586765534360893, 1917924.489537908229977 ], [ 973908.221162745030597, 1917923.171414432814345 ], [ 973911.647225781343877, 1917920.408385605551302 ], [ 973916.093930788920261, 1917917.085181392496452 ], [ 973924.931540986057371, 1917909.526423579547554 ], [ 973923.221401507151313, 1917907.860110610723495 ], [ 973916.721927861100994, 1917904.452786288224161 ], [ 973913.759902828955092, 1917902.905042854836211 ], [ 973906.842638909001835, 1917899.695849122712389 ], [ 973904.05052701884415, 1917896.251946796663105 ], [ 973903.008581855101511, 1917892.400954047683626 ], [ 973880.439591760514304, 1917902.849151717731729 ], [ 973877.816069298889488, 1917914.099631638498977 ], [ 973878.594049268751405, 1917914.342425599927083 ], [ 973883.309499096823856, 1917917.992083495017141 ] ] ] ] } },
{ "type": "Feature", "properties": { "pnu": "4146110500101950003", "jibun": "195-3전", "addr": "경기도 용인시 처인구 유방동 195-3", "gosi_year": "2025" }, "geometry": { "type": "MultiPolygon", "coordinates": [ [ [ [ 974345.118705529719591, 1918693.240039391908795 ], [ 974345.367612100788392, 1918693.240723521914333 ], [ 974375.360722815501504, 1918693.016281541669741 ], [ 974375.436246539931744, 1918594.738236564677209 ], [ 974345.123299688799307, 1918595.159289186121896 ], [ 974345.118705529719591, 1918693.240039391908795 ] ] ] ] } },
{ "type": "Feature", "properties": { "pnu": "4146110500101950001", "jibun": "195-1전", "addr": "경기도 용인시 처인구 유방동 195-1", "gosi_year": "2025" }, "geometry": { "type": "MultiPolygon", "coordinates": [ [ [ [ 974314.52156764769461, 1918693.225767231313512 ], [ 974345.118705529719591, 1918693.240039391908795 ], [ 974345.123299688799307, 1918595.159289186121896 ], [ 974314.592985395807773, 1918595.873376332456246 ], [ 974314.52156764769461, 1918693.225767231313512 ] ] ] ] } },
{ "type": "Feature", "properties": { "pnu": "4146110500102210003", "jibun": "221-3 답", "addr": "경기도 용인시 처인구 유방동 221-3", "gosi_year": "2025" }, "geometry": { "type": "MultiPolygon", "coordinates": [ [ [ [ 974670.533603401388973, 1918333.937176544684917 ], [ 974672.767327119945548, 1918324.9419192627538 ], [ 974673.559464504709467, 1918322.749601278454065 ], [ 974673.50197895639576, 1918270.469328394392505 ], [ 974670.166274411021732, 1918270.467907436192036 ], [ 974670.533603401388973, 1918333.937176544684917 ] ] ] ] } },
{ "type": "Feature", "properties": { "pnu": "4146110500102210002", "jibun": "221-2 답", "addr": "경기도 용인시 처인구 유방동 221-2", "gosi_year": "2025" }, "geometry": { "type": "MultiPolygon", "coordinates": [ [ [ [ 974673.559464504709467, 1918322.749601278454065 ], [ 974676.199936526827514, 1918315.444540242664516 ], [ 974679.882212416501716, 1918306.471640693023801 ], [ 974680.582680550869554, 1918304.904561558971182 ], [ 974680.58161866129376, 1918303.94394244463183 ], [ 974680.497263041208498, 1918270.472463438985869 ], [ 974673.50197895639576, 1918270.469328394392505 ], [ 974673.559464504709467, 1918322.749601278454065 ] ] ] ] } },
{ "type": "Feature", "properties": { "pnu": "4146110500102210001", "jibun": "221-1 답", "addr": "경기도 용인시 처인구 유방동 221-1", "gosi_year": "2025" }, "geometry": { "type": "MultiPolygon", "coordinates": [ [ [ [ 974680.582680550869554, 1918304.904561558971182 ], [ 974682.895531186833978, 1918299.734393082791939 ], [ 974685.183511646464467, 1918295.346050253836438 ], [ 974687.562655027606525, 1918291.185138179920614 ], [ 974688.816768639837392, 1918289.212299984879792 ], [ 974691.274660523165949, 1918283.301656550262123 ], [ 974696.621817058301531, 1918270.444501228630543 ], [ 974680.497263041208498, 1918270.472463438985869 ], [ 974680.58161866129376, 1918303.94394244463183 ], [ 974680.582680550869554, 1918304.904561558971182 ] ] ] ] } },
{ "type": "Feature", "properties": { "pnu": "4146110500103650002", "jibun": "365-2답", "addr": "경기도 용인시 처인구 유방동 365-2", "gosi_year": "2025" }, "geometry": { "type": "MultiPolygon", "coordinates": [ [ [ [ 974958.3608019213425, 1917279.094510797411203 ], [ 974958.845972164534032, 1917286.921887446893379 ], [ 974960.246038070996292, 1917309.55864079343155 ], [ 974985.582597117405385, 1917309.456801539286971 ], [ 974984.701483210781589, 1917265.842507226159796 ], [ 974964.164466025657021, 1917276.242958922637627 ], [ 974958.3608019213425, 1917279.094510797411203 ] ] ] ] } },
{ "type": "Feature", "properties": { "pnu": "4146110500101900000", "jibun": "190답", "addr": "경기도 용인시 처인구 유방동 190", "gosi_year": "2025" }, "geometry": { "type": "MultiPolygon", "coordinates": [ [ [ [ 974132.320438951719552, 1918767.163961813086644 ], [ 974129.169294154504314, 1918740.417048723436892 ], [ 974136.729984418256208, 1918726.53749914211221 ], [ 974124.543655656510964, 1918728.41417892719619 ], [ 974114.365819499013014, 1918726.937550494447351 ], [ 974107.008461537072435, 1918724.624340395675972 ], [ 974097.902828659978695, 1918717.40028591803275 ], [ 974089.324025145848282, 1918729.669845214579254 ], [ 974082.764807734638453, 1918735.388284599175677 ], [ 974076.148828894249164, 1918742.093639202648774 ], [ 974072.43350434943568, 1918752.542202626354992 ], [ 974099.03086345421616, 1918760.058688454562798 ], [ 974105.897821610211395, 1918761.881681565660983 ], [ 974116.951037941034883, 1918764.81911297258921 ], [ 974125.801177514833398, 1918767.390331817558035 ], [ 974132.320438951719552, 1918767.163961813086644 ] ] ] ] } },
{ "type": "Feature", "properties": { "pnu": "4146110500102000001", "jibun": "200-1 답", "addr": "경기도 용인시 처인구 유방동 200-1", "gosi_year": "2025" }, "geometry": { "type": "MultiPolygon", "coordinates": [ [ [ [ 974502.00393739528954, 1918577.869054683018476 ], [ 974505.348160383058712, 1918571.517910211347044 ], [ 974509.554535985109396, 1918560.326112357201055 ], [ 974509.581191156059504, 1918490.624189700465649 ], [ 974508.089478509849869, 1918489.619443424977362 ], [ 974504.162726682145149, 1918486.529344176175073 ], [ 974502.602814198937267, 1918485.102122265845537 ], [ 974501.780131896608509, 1918485.101458087563515 ], [ 974502.00393739528954, 1918577.869054683018476 ] ] ] ] } },
{ "type": "Feature", "properties": { "pnu": "4146110500102340002", "jibun": "234-2답", "addr": "경기도 용인시 처인구 유방동 234-2", "gosi_year": "2025" }, "geometry": { "type": "MultiPolygon", "coordinates": [ [ [ [ 974680.643631708342582, 1918166.093511116225272 ], [ 974650.382987483288161, 1918166.19539774605073 ], [ 974650.39735087682493, 1918183.294643474044278 ], [ 974652.634641621611081, 1918185.974772643530741 ], [ 974658.255030908039771, 1918195.73525690799579 ], [ 974661.795381116680801, 1918206.091501258313656 ], [ 974664.106431426131167, 1918217.057004506699741 ], [ 974664.50660818151664, 1918230.175765639636666 ], [ 974662.654569914448075, 1918239.870767121203244 ], [ 974664.304840673226863, 1918245.341908445814624 ], [ 974664.681669886456802, 1918254.230445267865434 ], [ 974658.385837704292499, 1918266.285010996740311 ], [ 974680.450091098784469, 1918266.260409464128315 ], [ 974680.643631708342582, 1918166.093511116225272 ] ] ] ] } },
{ "type": "Feature", "properties": { "pnu": "4146110500102350002", "jibun": "235-2전", "addr": "경기도 용인시 처인구 유방동 235-2", "gosi_year": "2025" }, "geometry": { "type": "MultiPolygon", "coordinates": [ [ [ [ 974690.976519113173708, 1918166.078907971270382 ], [ 974690.638054949697107, 1918266.249569545034319 ], [ 974699.545581060112454, 1918266.250492268940434 ], [ 974700.961091310949996, 1918265.316376075148582 ], [ 974709.067999455146492, 1918248.868955260375515 ], [ 974709.161859794519842, 1918248.849466849584132 ], [ 974710.585794558981434, 1918245.34730935562402 ], [ 974710.949562308378518, 1918166.049362696474418 ], [ 974690.976519113173708, 1918166.078907971270382 ] ] ] ] } },
{ "type": "Feature", "properties": { "pnu": "4146110500102350001", "jibun": "235-1전", "addr": "경기도 용인시 처인구 유방동 235-1", "gosi_year": "2025" }, "geometry": { "type": "MultiPolygon", "coordinates": [ [ [ [ 974680.643631708342582, 1918166.093511116225272 ], [ 974680.450091098784469, 1918266.260409464128315 ], [ 974690.638054949697107, 1918266.249569545034319 ], [ 974690.976519113173708, 1918166.078907971270382 ], [ 974680.643631708342582, 1918166.093511116225272 ] ] ] ] } },
{ "type": "Feature", "properties": { "pnu": "4146110500102230002", "jibun": "223-2답", "addr": "경기도 용인시 처인구 유방동 223-2", "gosi_year": "2025" }, "geometry": { "type": "MultiPolygon", "coordinates": [ [ [ [ 974590.235549567500129, 1918372.189396131550893 ], [ 974590.385952011100017, 1918372.656421116087586 ], [ 974590.464711031061597, 1918373.185799297410995 ], [ 974609.94606264855247, 1918373.178137342911214 ], [ 974609.931532413582318, 1918362.070552516030148 ], [ 974609.876859119511209, 1918316.58660656795837 ], [ 974604.094820392900147, 1918322.412801366299391 ], [ 974594.919236400281079, 1918333.576794902794063 ], [ 974590.222931601689197, 1918343.607625991571695 ], [ 974590.235549567500129, 1918372.189396131550893 ] ] ] ] } },
{ "type": "Feature", "properties": { "pnu": "4146110500102000008", "jibun": "200-8답", "addr": "경기도 용인시 처인구 유방동 200-8", "gosi_year": "2025" }, "geometry": { "type": "MultiPolygon", "coordinates": [ [ [ [ 974501.780465995543636, 1918485.101255607791245 ], [ 974496.028723816154525, 1918485.1036544253584 ], [ 974495.284005684079602, 1918487.561630840413272 ], [ 974495.336784166749567, 1918554.501219172030687 ], [ 974495.36330557113979, 1918579.576289955060929 ], [ 974496.629959232639521, 1918579.793510302668437 ], [ 974498.325324080768041, 1918579.798547636484727 ], [ 974499.998203166527674, 1918579.520814188290387 ], [ 974501.386139450478368, 1918579.043664696626365 ], [ 974502.004688643617555, 1918577.86885400256142 ], [ 974501.780465995543636, 1918485.101255607791245 ] ] ] ] } },
{ "type": "Feature", "properties": { "pnu": "4146110500101990002", "jibun": "199-2 전", "addr": "경기도 용인시 처인구 유방동 199-2", "gosi_year": "2025" }, "geometry": { "type": "MultiPolygon", "coordinates": [ [ [ [ 974509.554535985109396, 1918560.326112357201055 ], [ 974512.078153060749173, 1918553.609435419552028 ], [ 974517.740012323949486, 1918535.406704949215055 ], [ 974522.085783961229026, 1918516.900029266253114 ], [ 974525.334505586070009, 1918498.682022529654205 ], [ 974521.087478912202641, 1918497.034048087662086 ], [ 974516.574924002634361, 1918494.886667996179312 ], [ 974512.234563899110071, 1918492.409509181510657 ], [ 974509.581191156059504, 1918490.624189700465649 ], [ 974509.554535985109396, 1918560.326112357201055 ] ] ] ] } },
{ "type": "Feature", "properties": { "pnu": "4146110500103670002", "jibun": "367-2답", "addr": "경기도 용인시 처인구 유방동 367-2", "gosi_year": "2025" }, "geometry": { "type": "MultiPolygon", "coordinates": [ [ [ [ 974998.445335054653697, 1917258.88260587840341 ], [ 974999.27696251461748, 1917309.403460868168622 ], [ 974999.751763675711118, 1917309.40095303975977 ], [ 975004.601764220977202, 1917309.381333158817142 ], [ 975003.304433370474726, 1917256.421892461832613 ], [ 974998.445335054653697, 1917258.88260587840341 ] ] ] ] } },
{ "type": "Feature", "properties": { "pnu": "4146110500103670001", "jibun": "367-1답", "addr": "경기도 용인시 처인구 유방동 367-1", "gosi_year": "2025" }, "geometry": { "type": "MultiPolygon", "coordinates": [ [ [ [ 974998.445335054653697, 1917258.88260587840341 ], [ 974984.701483210781589, 1917265.842507226159796 ], [ 974985.582597117405385, 1917309.456801539286971 ], [ 974999.27696251461748, 1917309.403460868168622 ], [ 974998.445335054653697, 1917258.88260587840341 ] ] ] ] } },
{ "type": "Feature", "properties": { "pnu": "4146110500101970001", "jibun": "197-1전", "addr": "경기도 용인시 처인구 유방동 197-1", "gosi_year": "2025" }, "geometry": { "type": "MultiPolygon", "coordinates": [ [ [ [ 974493.50024777802173, 1918592.860950740519911 ], [ 974482.237284597475082, 1918593.171359115280211 ], [ 974481.134892116417177, 1918595.475286299129948 ], [ 974478.928225246490911, 1918598.591732933651656 ], [ 974476.226541044772603, 1918601.289959196001291 ], [ 974473.106400735559873, 1918603.492590607143939 ], [ 974469.659427840146236, 1918605.135168168926612 ], [ 974465.983338447054848, 1918606.171193540561944 ], [ 974462.185929027036764, 1918606.570108753629029 ], [ 974462.161939060082659, 1918606.570235535968095 ], [ 974460.973033283371478, 1918606.689472906757146 ], [ 974459.819095646031201, 1918606.994452870683745 ], [ 974458.727088338229805, 1918607.480035035870969 ], [ 974457.726924989139661, 1918608.132066888734698 ], [ 974461.983561807544902, 1918619.351189153734595 ], [ 974463.512720991624519, 1918622.143017075490206 ], [ 974465.754262937814929, 1918624.492252409923822 ], [ 974467.350609250832349, 1918625.432447981787845 ], [ 974475.356886092107743, 1918620.400095629738644 ], [ 974485.850058311363682, 1918604.368892742088065 ], [ 974493.50024777802173, 1918592.860950740519911 ] ] ] ] } },
{ "type": "Feature", "properties": { "pnu": "4146110500101920001", "jibun": "192-1답", "addr": "경기도 용인시 처인구 유방동 192-1", "gosi_year": "2025" }, "geometry": { "type": "MultiPolygon", "coordinates": [ [ [ [ 974168.920028930413537, 1918786.057141459081322 ], [ 974178.370374687830918, 1918796.846981830662116 ], [ 974181.789958180161193, 1918795.128577368101105 ], [ 974187.106648330460303, 1918799.813647734001279 ], [ 974190.893774593365379, 1918797.657471381826326 ], [ 974196.37402442691382, 1918782.595379989594221 ], [ 974199.012958654784597, 1918770.480157340876758 ], [ 974197.576427280087955, 1918761.192373179830611 ], [ 974202.402898708474822, 1918755.96190257370472 ], [ 974213.655555759207346, 1918745.943333633244038 ], [ 974213.753762518637814, 1918738.989527099067345 ], [ 974208.49936160503421, 1918725.471572789363563 ], [ 974204.199479490285739, 1918720.825112572405487 ], [ 974202.579217715887353, 1918717.628923326730728 ], [ 974197.931200445513241, 1918719.36381402797997 ], [ 974193.255922445096076, 1918715.749935109401122 ], [ 974188.174759062938392, 1918713.830540601862594 ], [ 974188.10813671851065, 1918719.383726602653041 ], [ 974179.13878515153192, 1918726.412393151316792 ], [ 974172.968142580473796, 1918733.403281834442168 ], [ 974163.62323641194962, 1918742.191247497685254 ], [ 974176.475264466134831, 1918747.496247706469148 ], [ 974178.053009635652415, 1918754.943003798602149 ], [ 974168.906026219716296, 1918781.514987037982792 ], [ 974168.920028930413537, 1918786.057141459081322 ] ] ] ] } },
{ "type": "Feature", "properties": { "pnu": "4146110500101880000", "jibun": "188전", "addr": "경기도 용인시 처인구 유방동 188", "gosi_year": "2025" }, "geometry": { "type": "MultiPolygon", "coordinates": [ [ [ [ 974190.893774593365379, 1918797.657471381826326 ], [ 974187.106648330460303, 1918799.813647734001279 ], [ 974181.789958180161193, 1918795.128577368101105 ], [ 974178.370374687830918, 1918796.846981830662116 ], [ 974168.920028930413537, 1918786.057141459081322 ], [ 974163.688601529691368, 1918784.644343901658431 ], [ 974160.990179888904095, 1918778.122150619514287 ], [ 974154.05866896698717, 1918776.757320321630687 ], [ 974147.972632033051923, 1918774.409404563717544 ], [ 974145.896240867092274, 1918774.371394388377666 ], [ 974138.692503776517697, 1918810.214491585502401 ], [ 974150.54629535949789, 1918810.292805901030079 ], [ 974186.107645897427574, 1918812.226086590904742 ], [ 974191.338322749827057, 1918811.41575505072251 ], [ 974206.265422788681462, 1918807.049558598548174 ], [ 974211.737205932848155, 1918806.844716543797404 ], [ 974211.536234652856365, 1918806.456930036423728 ], [ 974211.384002557955682, 1918802.807158473180607 ], [ 974208.50829665386118, 1918800.380305086961016 ], [ 974195.444914263905957, 1918801.99272460420616 ], [ 974190.893774593365379, 1918797.657471381826326 ] ] ] ] } },
{ "type": "Feature", "properties": { "pnu": "4146110500102180002", "jibun": "218-2 답", "addr": "경기도 용인시 처인구 유방동 218-2", "gosi_year": "2025" }, "geometry": { "type": "MultiPolygon", "coordinates": [ [ [ [ 974501.462236935389228, 1918434.243992226896808 ], [ 974501.778393554850481, 1918434.107379432301968 ], [ 974501.774480455322191, 1918379.853585093980655 ], [ 974471.553164481767453, 1918379.831857377663255 ], [ 974471.580013397964649, 1918387.015910889720544 ], [ 974473.805206983815879, 1918389.874068323988467 ], [ 974476.124407784896903, 1918392.550801169825718 ], [ 974480.003732491401024, 1918396.884665209800005 ], [ 974482.965508475899696, 1918401.046431844588369 ], [ 974484.307025087997317, 1918404.09017366846092 ], [ 974488.349777686526068, 1918409.845621288986877 ], [ 974492.108289284049533, 1918416.293296503601596 ], [ 974501.462236935389228, 1918434.243992226896808 ] ] ] ] } },
{ "type": "Feature", "properties": { "pnu": "4146110500102000009", "jibun": "200-9답", "addr": "경기도 용인시 처인구 유방동 200-9", "gosi_year": "2025" }, "geometry": { "type": "MultiPolygon", "coordinates": [ [ [ [ 974495.284005684079602, 1918487.561630840413272 ], [ 974495.038377246353775, 1918488.370613325154409 ], [ 974494.543994685984217, 1918492.045791482320055 ], [ 974494.243144121021032, 1918499.241572422906756 ], [ 974491.138044957770035, 1918519.238177387043834 ], [ 974489.971367868711241, 1918539.26852415734902 ], [ 974487.377696311217733, 1918551.626408319687471 ], [ 974487.335090241977014, 1918569.482662723632529 ], [ 974487.446988178999163, 1918571.174410839332268 ], [ 974487.838557720067911, 1918572.824697042349726 ], [ 974488.498550117132254, 1918574.385599317029119 ], [ 974489.408756377757527, 1918575.816229997435585 ], [ 974490.544969832873903, 1918577.075733012985438 ], [ 974491.873014732031152, 1918578.12830284726806 ], [ 974493.358762611052953, 1918578.947130331769586 ], [ 974494.959099499508739, 1918579.507453153608367 ], [ 974495.36330557113979, 1918579.576289955060929 ], [ 974495.336784166749567, 1918554.501219172030687 ], [ 974495.284005684079602, 1918487.561630840413272 ] ] ] ] } },
{ "type": "Feature", "properties": { "pnu": "4146110500102030002", "jibun": "203-2답", "addr": "경기도 용인시 처인구 유방동 203-2", "gosi_year": "2025" }, "geometry": { "type": "MultiPolygon", "coordinates": [ [ [ [ 974366.440407468006015, 1918522.775866984389722 ], [ 974366.460455347434618, 1918545.679822657490149 ], [ 974366.60528957284987, 1918554.551594918360934 ], [ 974366.467837529024109, 1918589.268772935494781 ], [ 974375.976206721388735, 1918589.094585155602545 ], [ 974376.165176539216191, 1918555.803578598890454 ], [ 974376.056079128873535, 1918511.88229614472948 ], [ 974369.798143472056836, 1918521.081781242275611 ], [ 974366.440407468006015, 1918522.775866984389722 ] ] ] ] } },
{ "type": "Feature", "properties": { "pnu": "4146110500101500001", "jibun": "150-1답", "addr": "경기도 용인시 처인구 유방동 150-1", "gosi_year": "2025" }, "geometry": { "type": "MultiPolygon", "coordinates": [ [ [ [ 974216.914593603578396, 1918406.387565020471811 ], [ 974210.686748827109113, 1918400.091936448356137 ], [ 974209.059629595954902, 1918394.083879680838436 ], [ 974208.162755900761113, 1918386.662514772033319 ], [ 974212.661716449074447, 1918381.310824545100331 ], [ 974218.961770762689412, 1918365.892542074434459 ], [ 974220.624201562721282, 1918353.987399916164577 ], [ 974224.637843479169533, 1918347.025902804685757 ], [ 974230.044019769411534, 1918332.699918981641531 ], [ 974236.859101700014435, 1918315.432636484736577 ], [ 974241.531367493094876, 1918310.529855616390705 ], [ 974246.194498031167313, 1918303.141092974925414 ], [ 974254.779676135978661, 1918295.8615592867136 ], [ 974265.164328522980213, 1918292.021173593122512 ], [ 974277.487628530012444, 1918288.446438503917307 ], [ 974281.435027516679838, 1918290.894620953127742 ], [ 974291.752344710985199, 1918285.472208563704044 ], [ 974296.169340389897116, 1918280.688730706227943 ], [ 974286.152840878232382, 1918281.936182125005871 ], [ 974275.544571161037311, 1918276.7502710102126 ], [ 974256.977433451451361, 1918274.786166107747704 ], [ 974246.132437487831339, 1918274.175720986910164 ], [ 974232.063040496082976, 1918287.820755792781711 ], [ 974211.438967392314225, 1918306.530457602581009 ], [ 974213.493446501204744, 1918315.28718354832381 ], [ 974209.920019437908195, 1918333.296044658403844 ], [ 974202.244658240117133, 1918353.095886579481885 ], [ 974200.814408857258968, 1918357.862586385337636 ], [ 974198.821370038553141, 1918365.087301756255329 ], [ 974196.495752683957107, 1918386.179365687305108 ], [ 974196.024774704943411, 1918394.284693327732384 ], [ 974203.539507670328021, 1918402.924606181681156 ], [ 974210.584917453001253, 1918405.603324744850397 ], [ 974216.914593603578396, 1918406.387565020471811 ] ] ] ] } },
{ "type": "Feature", "properties": { "pnu": "4146110500101510000", "jibun": "151답", "addr": "경기도 용인시 처인구 유방동 151", "gosi_year": "2025" }, "geometry": { "type": "MultiPolygon", "coordinates": [ [ [ [ 974250.564320272649638, 1918256.316265533678234 ], [ 974228.313136968645267, 1918256.720706610474735 ], [ 974219.175167501321994, 1918263.431383593240753 ], [ 974197.324234990635887, 1918270.346170013071969 ], [ 974186.349617759347893, 1918280.015400088159367 ], [ 974179.269522421993315, 1918290.827601667493582 ], [ 974170.809205001918599, 1918309.631980834063143 ], [ 974178.476577872061171, 1918302.889087903546169 ], [ 974184.367798778694123, 1918300.149020954268053 ], [ 974202.73461663571652, 1918307.146220958558843 ], [ 974210.144301624735817, 1918303.281567372381687 ], [ 974225.030785828013904, 1918286.307512219529599 ], [ 974246.322679475415498, 1918268.36998046329245 ], [ 974256.320023762062192, 1918269.740609075175598 ], [ 974250.564320272649638, 1918256.316265533678234 ] ] ] ] } },
{ "type": "Feature", "properties": { "pnu": "4146110500101590000", "jibun": "159답", "addr": "경기도 용인시 처인구 유방동 159", "gosi_year": "2025" }, "geometry": { "type": "MultiPolygon", "coordinates": [ [ [ [ 974147.866765596088953, 1918317.127311017131433 ], [ 974150.481042854953557, 1918329.860528065124527 ], [ 974147.778193404781632, 1918339.906894762534648 ], [ 974147.232286667916924, 1918351.615213565528393 ], [ 974150.572045848704875, 1918361.465720546199009 ], [ 974155.873867029091343, 1918366.174862744053826 ], [ 974160.323332080850378, 1918372.645822720834985 ], [ 974166.932461472461, 1918379.023404713487253 ], [ 974172.541542697581463, 1918388.156197523232549 ], [ 974183.539781918399967, 1918394.878447546157986 ], [ 974194.241442624246702, 1918402.79379946924746 ], [ 974201.025776711641811, 1918405.438911032862961 ], [ 974203.539507670328021, 1918402.924606181681156 ], [ 974196.024774704943411, 1918394.284693327732384 ], [ 974196.495752683957107, 1918386.179365687305108 ], [ 974198.821370038553141, 1918365.087301756255329 ], [ 974200.814408857258968, 1918357.862586385337636 ], [ 974202.244658240117133, 1918353.095886579481885 ], [ 974209.920019437908195, 1918333.296044658403844 ], [ 974213.493446501204744, 1918315.28718354832381 ], [ 974211.438967392314225, 1918306.530457602581009 ], [ 974204.292393722222187, 1918311.19240958057344 ], [ 974193.317599123110995, 1918307.961672866716981 ], [ 974179.750298557686619, 1918306.336011659121141 ], [ 974167.723913504509255, 1918316.16074054222554 ], [ 974160.215921247145161, 1918316.554267692612484 ], [ 974155.078401859151199, 1918318.536647005705163 ], [ 974147.866765596088953, 1918317.127311017131433 ] ] ] ] } },
{ "type": "Feature", "properties": { "pnu": "4146110500102180003", "jibun": "218-3답", "addr": "경기도 용인시 처인구 유방동 218-3", "gosi_year": "2025" }, "geometry": { "type": "MultiPolygon", "coordinates": [ [ [ [ 974526.113737806794234, 1918427.917972579598427 ], [ 974526.546398875303566, 1918406.883898129453883 ], [ 974525.669231600826606, 1918384.650214742869139 ], [ 974513.532032790011726, 1918384.094579200027511 ], [ 974513.380727242911234, 1918379.863030959619209 ], [ 974501.774206767673604, 1918379.853377417195588 ], [ 974501.778948445338756, 1918434.107171687530354 ], [ 974504.822833641781472, 1918432.796595649328083 ], [ 974523.556119331973605, 1918427.990461944369599 ], [ 974526.113737806794234, 1918427.917972579598427 ] ] ] ] } },
{ "type": "Feature", "properties": { "pnu": "4146110500102180001", "jibun": "218-1 답", "addr": "경기도 용인시 처인구 유방동 218-1", "gosi_year": "2025" }, "geometry": { "type": "MultiPolygon", "coordinates": [ [ [ [ 974446.868443627143279, 1918480.523631635354832 ], [ 974468.712115105590783, 1918480.371574303135276 ], [ 974468.504137027543038, 1918479.980822914279997 ], [ 974468.061668598093092, 1918478.720646768342704 ], [ 974467.817843176424503, 1918477.407444460084662 ], [ 974467.77782190812286, 1918476.072176721412688 ], [ 974467.941773301339708, 1918474.746830167947337 ], [ 974469.362304698326625, 1918469.070560210151598 ], [ 974469.607912973035127, 1918468.065658211475238 ], [ 974471.059144769678824, 1918464.042580998735502 ], [ 974471.86173775815405, 1918462.317025071941316 ], [ 974471.820981246768497, 1918451.354520146036521 ], [ 974470.71462735440582, 1918445.702557407552376 ], [ 974466.783808431704529, 1918428.1781150624156 ], [ 974465.262316091684625, 1918425.505176902981475 ], [ 974461.600299928337336, 1918422.194768106099218 ], [ 974458.6520172158489, 1918421.163708003936335 ], [ 974457.236867967993021, 1918421.410069597652182 ], [ 974455.045994903659448, 1918422.600150769809261 ], [ 974449.167460141936317, 1918417.509118086192757 ], [ 974462.552182225626893, 1918383.53284679283388 ], [ 974471.563025369076058, 1918382.462778175948188 ], [ 974471.553164481767453, 1918379.831857377663255 ], [ 974455.800278181908652, 1918380.014802338555455 ], [ 974444.993518822127953, 1918410.379897961160168 ], [ 974446.042749340063892, 1918450.349763540551066 ], [ 974446.868443627143279, 1918480.523631635354832 ] ] ] ] } },
{ "type": "Feature", "properties": { "pnu": "4146110500102040000", "jibun": "204전", "addr": "경기도 용인시 처인구 유방동 204", "gosi_year": "2025" }, "geometry": { "type": "MultiPolygon", "coordinates": [ [ [ [ 974366.440407468006015, 1918522.775866984389722 ], [ 974362.786577221588232, 1918524.619459227193147 ], [ 974353.949039416038431, 1918528.784543382702395 ], [ 974346.80509387596976, 1918535.835550141055137 ], [ 974333.101346495561302, 1918554.548677289392799 ], [ 974319.612645648885518, 1918576.881255959160626 ], [ 974309.32026088249404, 1918590.049517371924594 ], [ 974362.281878286739811, 1918589.345867349533364 ], [ 974366.467837529024109, 1918589.268772935494781 ], [ 974366.60528957284987, 1918554.551594918360934 ], [ 974366.460455347434618, 1918545.679822657490149 ], [ 974366.440407468006015, 1918522.775866984389722 ] ] ] ] } },
{ "type": "Feature", "properties": { "pnu": "4146110500102030001", "jibun": "203-1답", "addr": "경기도 용인시 처인구 유방동 203-1", "gosi_year": "2025" }, "geometry": { "type": "MultiPolygon", "coordinates": [ [ [ [ 974395.97645960166119, 1918588.727018839213997 ], [ 974397.232379766297527, 1918543.774924957891926 ], [ 974397.44787382229697, 1918530.450986109441146 ], [ 974397.844035181915388, 1918505.914468564791605 ], [ 974398.144561609486118, 1918487.305143154691905 ], [ 974388.044827652629465, 1918486.609794819261879 ], [ 974383.145242887898348, 1918501.462893862277269 ], [ 974376.056079128873535, 1918511.88229614472948 ], [ 974376.165176539216191, 1918555.803578598890454 ], [ 974375.976206721388735, 1918589.094585155602545 ], [ 974395.97645960166119, 1918588.727018839213997 ] ] ] ] } },
{ "type": "Feature", "properties": { "pnu": "4146110500102060000", "jibun": "206답", "addr": "경기도 용인시 처인구 유방동 206", "gosi_year": "2025" }, "geometry": { "type": "MultiPolygon", "coordinates": [ [ [ [ 974225.608396040741354, 1918807.715058607747778 ], [ 974227.370122489868663, 1918806.658159020589665 ], [ 974242.374276481568813, 1918794.172723027644679 ], [ 974248.332398136379197, 1918790.094821361359209 ], [ 974251.626864597201347, 1918788.345090691000223 ], [ 974246.007695607608184, 1918770.492756158579141 ], [ 974239.750685718958266, 1918762.839813875500113 ], [ 974240.592448780196719, 1918751.694712479133159 ], [ 974235.535715892561711, 1918750.993713807314634 ], [ 974222.006528075202368, 1918739.93253855779767 ], [ 974221.16437127138488, 1918748.543630745727569 ], [ 974217.787864872370847, 1918753.117693234467879 ], [ 974211.997057210886851, 1918757.456608560169116 ], [ 974202.402898708474822, 1918755.96190257370472 ], [ 974197.576427280087955, 1918761.192373179830611 ], [ 974199.012958654784597, 1918770.480157340876758 ], [ 974196.37402442691382, 1918782.595379989594221 ], [ 974190.893774593365379, 1918797.657471381826326 ], [ 974195.444914263905957, 1918801.99272460420616 ], [ 974208.50829665386118, 1918800.380305086961016 ], [ 974211.384002557955682, 1918802.807158473180607 ], [ 974211.536234652856365, 1918806.456930036423728 ], [ 974211.737205932848155, 1918806.844716543797404 ], [ 974213.856960731325671, 1918806.765543120447546 ], [ 974225.608396040741354, 1918807.715058607747778 ] ] ] ] } },
{ "type": "Feature", "properties": { "pnu": "4146110500101970009", "jibun": "197-9전", "addr": "경기도 용인시 처인구 유방동 197-9", "gosi_year": "2025" }, "geometry": { "type": "MultiPolygon", "coordinates": [ [ [ [ 974455.60888576193247, 1918611.504834471968934 ], [ 974455.62099642958492, 1918611.58484980976209 ], [ 974457.624973506201059, 1918617.782838515471667 ], [ 974457.285217794356868, 1918608.533244825201109 ], [ 974456.843515862594359, 1918608.935422445181757 ], [ 974456.097736037685536, 1918609.868000223301351 ], [ 974455.516384047805332, 1918610.893672588048503 ], [ 974455.60888576193247, 1918611.504834471968934 ] ] ] ] } },
{ "type": "Feature", "properties": { "pnu": "4146110500101910000", "jibun": "191전", "addr": "경기도 용인시 처인구 유방동 191", "gosi_year": "2025" }, "geometry": { "type": "MultiPolygon", "coordinates": [ [ [ [ 974163.62323641194962, 1918742.191247497685254 ], [ 974160.532701554475352, 1918740.916080129798502 ], [ 974154.516048050951213, 1918752.078528044978157 ], [ 974148.160791124915704, 1918763.101820145035163 ], [ 974145.896240867092274, 1918774.371394388377666 ], [ 974147.972632033051923, 1918774.409404563717544 ], [ 974154.05866896698717, 1918776.757320321630687 ], [ 974160.990179888904095, 1918778.122150619514287 ], [ 974163.688601529691368, 1918784.644343901658431 ], [ 974168.920028930413537, 1918786.057141459081322 ], [ 974168.906026219716296, 1918781.514987037982792 ], [ 974178.053009635652415, 1918754.943003798602149 ], [ 974176.475264466134831, 1918747.496247706469148 ], [ 974163.62323641194962, 1918742.191247497685254 ] ] ] ] } },
{ "type": "Feature", "properties": { "pnu": "4146110500101480000", "jibun": "148답", "addr": "경기도 용인시 처인구 유방동 148", "gosi_year": "2025" }, "geometry": { "type": "MultiPolygon", "coordinates": [ [ [ [ 974311.262909143348224, 1918285.883932838216424 ], [ 974311.154184089042246, 1918286.306342645781115 ], [ 974309.289080924354494, 1918293.528381842421368 ], [ 974304.727666468592361, 1918299.357215088792145 ], [ 974302.947518730303273, 1918306.387880039168522 ], [ 974303.193703650729731, 1918313.441826681839302 ], [ 974301.151438288623467, 1918316.45744362147525 ], [ 974281.761257277452387, 1918316.694830576889217 ], [ 974277.582503136945888, 1918321.163172461325303 ], [ 974271.966772625572048, 1918329.692524519516155 ], [ 974275.228321132133715, 1918333.442823615157977 ], [ 974273.530012385686859, 1918336.475616180570796 ], [ 974266.165841247770004, 1918341.954399441834539 ], [ 974262.272227211040445, 1918350.443665721453726 ], [ 974261.812584113096818, 1918361.072948128683493 ], [ 974256.334291432634927, 1918375.939102088101208 ], [ 974253.255281601217575, 1918387.440888081677258 ], [ 974252.366859776549973, 1918398.837137578288093 ], [ 974262.362031920696609, 1918414.176326491171494 ], [ 974266.367947857244872, 1918420.510682977968827 ], [ 974274.79241777677089, 1918427.654370547039434 ], [ 974276.544275128166191, 1918438.163011571392417 ], [ 974280.405829043593258, 1918449.148316160077229 ], [ 974287.381906778318807, 1918456.678507751319557 ], [ 974290.348014809074812, 1918467.702529730973765 ], [ 974296.866030492936261, 1918471.781488670036197 ], [ 974307.168515804223716, 1918480.769529953831807 ], [ 974317.768229875247926, 1918489.255196200450882 ], [ 974315.277186055434868, 1918483.197725681355223 ], [ 974312.64943491620943, 1918476.807107801316306 ], [ 974314.584524663747288, 1918454.451603273395449 ], [ 974309.44920419191476, 1918454.011916397605091 ], [ 974307.25178854027763, 1918446.013651142595336 ], [ 974302.079409097321332, 1918434.775373607408255 ], [ 974299.958898026496172, 1918426.764706601854414 ], [ 974308.575848522363231, 1918399.388845743611455 ], [ 974308.263501567649655, 1918389.461370087461546 ], [ 974311.38979995297268, 1918369.692560666473582 ], [ 974314.516009336221032, 1918363.908295003464445 ], [ 974324.994632169371471, 1918332.634117069188505 ], [ 974338.034807238611393, 1918313.573635757900774 ], [ 974344.912817903445102, 1918317.867608933243901 ], [ 974348.033391653094441, 1918297.204179897904396 ], [ 974325.368358330451883, 1918306.120487750507891 ], [ 974318.232623000163585, 1918303.373272888362408 ], [ 974317.066508864518255, 1918297.210840487154201 ], [ 974314.627918307553045, 1918288.783017221372575 ], [ 974311.262909143348224, 1918285.883932838216424 ] ] ] ] } },
{ "type": "Feature", "properties": { "pnu": "4146110500101490002", "jibun": "149-2답", "addr": "경기도 용인시 처인구 유방동 149-2", "gosi_year": "2025" }, "geometry": { "type": "MultiPolygon", "coordinates": [ [ [ [ 974242.506404764950275, 1918410.321771763730794 ], [ 974253.616108007030562, 1918418.653803941560909 ], [ 974264.335776476422325, 1918426.572058657649904 ], [ 974266.367947857244872, 1918420.510682977968827 ], [ 974262.362031920696609, 1918414.176326491171494 ], [ 974252.366859776549973, 1918398.837137578288093 ], [ 974253.255281601217575, 1918387.440888081677258 ], [ 974256.334291432634927, 1918375.939102088101208 ], [ 974261.812584113096818, 1918361.072948128683493 ], [ 974262.272227211040445, 1918350.443665721453726 ], [ 974266.165841247770004, 1918341.954399441834539 ], [ 974273.530012385686859, 1918336.475616180570796 ], [ 974275.228321132133715, 1918333.442823615157977 ], [ 974271.966772625572048, 1918329.692524519516155 ], [ 974277.582503136945888, 1918321.163172461325303 ], [ 974281.761257277452387, 1918316.694830576889217 ], [ 974301.151438288623467, 1918316.45744362147525 ], [ 974303.193703650729731, 1918313.441826681839302 ], [ 974302.947518730303273, 1918306.387880039168522 ], [ 974304.727666468592361, 1918299.357215088792145 ], [ 974309.289080924354494, 1918293.528381842421368 ], [ 974311.154184089042246, 1918286.306342645781115 ], [ 974303.175734497606754, 1918283.929436911828816 ], [ 974301.061039006453939, 1918288.939658362185583 ], [ 974272.579277632990852, 1918305.803607701789588 ], [ 974259.990186112350784, 1918307.12762589007616 ], [ 974248.884302840102464, 1918333.387077305465937 ], [ 974241.723087498918176, 1918350.414282770128921 ], [ 974236.967206564964727, 1918357.275741621153429 ], [ 974233.566384740523063, 1918384.115245211869478 ], [ 974228.086400207714178, 1918393.55252652708441 ], [ 974230.641265819547698, 1918398.635040837572888 ], [ 974240.187736458727159, 1918406.618471239460632 ], [ 974242.506404764950275, 1918410.321771763730794 ] ] ] ] } },
{ "type": "Feature", "properties": { "pnu": "4146110500101530000", "jibun": "153전", "addr": "경기도 용인시 처인구 유방동 153", "gosi_year": "2025" }, "geometry": { "type": "MultiPolygon", "coordinates": [ [ [ [ 974155.009531546384096, 1918257.440839727409184 ], [ 974164.397887516533956, 1918258.200925211189315 ], [ 974184.99880600522738, 1918247.028406022582203 ], [ 974206.112653360934928, 1918233.798978747567162 ], [ 974216.730179599719122, 1918234.303667944855988 ], [ 974212.707725861575454, 1918230.704330740030855 ], [ 974195.750750570907257, 1918222.078313651494682 ], [ 974147.191023333813064, 1918210.410503567429259 ], [ 974130.379718612763099, 1918207.409521855413914 ], [ 974126.111502104438841, 1918207.432070597307757 ], [ 974122.67919871234335, 1918210.338076969143003 ], [ 974119.667929797898978, 1918216.687515453435481 ], [ 974118.986033269204199, 1918222.143991292687133 ], [ 974119.2039488714654, 1918225.92836378607899 ], [ 974125.957165329135023, 1918228.359724622685462 ], [ 974134.270985457347706, 1918235.183124677743763 ], [ 974137.857232429436408, 1918238.521869128802791 ], [ 974143.143365341238678, 1918240.072327039670199 ], [ 974144.360770968720317, 1918250.077990675810724 ], [ 974155.350505471578799, 1918246.865162381669506 ], [ 974153.425380823086016, 1918252.565113690448925 ], [ 974155.009531546384096, 1918257.440839727409184 ] ] ] ] } },
{ "type": "Feature", "properties": { "pnu": "4146110500101570002", "jibun": "157-2답", "addr": "경기도 용인시 처인구 유방동 157-2", "gosi_year": "2025" }, "geometry": { "type": "MultiPolygon", "coordinates": [ [ [ [ 974125.738434552913532, 1918310.701767982915044 ], [ 974127.538280748645775, 1918302.669388098176569 ], [ 974130.91679247491993, 1918292.987308264710009 ], [ 974144.174218558706343, 1918277.963101115077734 ], [ 974145.119354089605622, 1918273.138987484853715 ], [ 974155.009531546384096, 1918257.440839727409184 ], [ 974153.425380823086016, 1918252.565113690448925 ], [ 974155.350505471578799, 1918246.865162381669506 ], [ 974144.360770968720317, 1918250.077990675810724 ], [ 974143.143365341238678, 1918240.072327039670199 ], [ 974137.857232429436408, 1918238.521869128802791 ], [ 974132.472671663854271, 1918241.991973472060636 ], [ 974123.786169892409816, 1918250.527553238440305 ], [ 974112.134485129150562, 1918252.944190573878586 ], [ 974116.017363721621223, 1918263.046729556983337 ], [ 974121.222414374351501, 1918271.198041577124968 ], [ 974119.485003849957138, 1918281.020393325248733 ], [ 974115.605342842871323, 1918291.204925913363695 ], [ 974111.641679258784279, 1918300.815126584144309 ], [ 974107.953013406833634, 1918312.904906882438809 ], [ 974121.568135847919621, 1918315.257032034220174 ], [ 974125.738434552913532, 1918310.701767982915044 ] ] ] ] } },
{ "type": "Feature", "properties": { "pnu": "4146110500104070002", "jibun": "407-2전", "addr": "경기도 용인시 처인구 유방동 407-2", "gosi_year": "2025" }, "geometry": { "type": "MultiPolygon", "coordinates": [ [ [ [ 974819.169948881259188, 1917037.937225876841694 ], [ 974820.100579116959125, 1917139.567597073502839 ], [ 974850.588196964934468, 1917139.478539985138923 ], [ 974850.507689781370573, 1917037.555794595973566 ], [ 974819.169948881259188, 1917037.937225876841694 ] ] ] ] } },
{ "type": "Feature", "properties": { "pnu": "4146110500101490003", "jibun": "149-3답", "addr": "경기도 용인시 처인구 유방동 149-3", "gosi_year": "2025" }, "geometry": { "type": "MultiPolygon", "coordinates": [ [ [ [ 974296.169340389897116, 1918280.688730706227943 ], [ 974291.752344710985199, 1918285.472208563704044 ], [ 974281.435027516679838, 1918290.894620953127742 ], [ 974277.487628530012444, 1918288.446438503917307 ], [ 974265.164328522980213, 1918292.021173593122512 ], [ 974254.779676135978661, 1918295.8615592867136 ], [ 974246.194498031167313, 1918303.141092974925414 ], [ 974241.531367493094876, 1918310.529855616390705 ], [ 974236.859101700014435, 1918315.432636484736577 ], [ 974230.044019769411534, 1918332.699918981641531 ], [ 974224.637843479169533, 1918347.025902804685757 ], [ 974220.624201562721282, 1918353.987399916164577 ], [ 974218.961770762689412, 1918365.892542074434459 ], [ 974212.661716449074447, 1918381.310824545100331 ], [ 974208.162755900761113, 1918386.662514772033319 ], [ 974209.059629595954902, 1918394.083879680838436 ], [ 974210.686748827109113, 1918400.091936448356137 ], [ 974216.914593603578396, 1918406.387565020471811 ], [ 974228.63953802594915, 1918409.891229334287345 ], [ 974239.538616124889813, 1918412.034788946853951 ], [ 974242.506404764950275, 1918410.321771763730794 ], [ 974240.187736458727159, 1918406.618471239460632 ], [ 974230.641265819547698, 1918398.635040837572888 ], [ 974228.086400207714178, 1918393.55252652708441 ], [ 974233.566384740523063, 1918384.115245211869478 ], [ 974236.967206564964727, 1918357.275741621153429 ], [ 974241.723087498918176, 1918350.414282770128921 ], [ 974248.884302840102464, 1918333.387077305465937 ], [ 974259.990186112350784, 1918307.12762589007616 ], [ 974272.579277632990852, 1918305.803607701789588 ], [ 974301.061039006453939, 1918288.939658362185583 ], [ 974303.175734497606754, 1918283.929436911828816 ], [ 974304.046492770663463, 1918281.866639724932611 ], [ 974296.169340389897116, 1918280.688730706227943 ] ] ] ] } },
{ "type": "Feature", "properties": { "pnu": "4146110500101470004", "jibun": "147-4답", "addr": "경기도 용인시 처인구 유방동 147-4", "gosi_year": "2025" }, "geometry": { "type": "MultiPolygon", "coordinates": [ [ [ [ 974325.790058358106762, 1918396.725903951795772 ], [ 974325.950963033130392, 1918395.584498975193128 ], [ 974325.929693399579264, 1918395.342705733142793 ], [ 974324.539044887758791, 1918378.845492921071127 ], [ 974328.362716729287058, 1918367.334775733528659 ], [ 974333.993195711402223, 1918356.299323871266097 ], [ 974344.912817903445102, 1918317.867608933243901 ], [ 974338.034807238611393, 1918313.573635757900774 ], [ 974324.994632169371471, 1918332.634117069188505 ], [ 974314.516009336221032, 1918363.908295003464445 ], [ 974311.38979995297268, 1918369.692560666473582 ], [ 974308.263501567649655, 1918389.461370087461546 ], [ 974308.575848522363231, 1918399.388845743611455 ], [ 974299.958898026496172, 1918426.764706601854414 ], [ 974302.079409097321332, 1918434.775373607408255 ], [ 974307.25178854027763, 1918446.013651142595336 ], [ 974309.44920419191476, 1918454.011916397605091 ], [ 974314.584524663747288, 1918454.451603273395449 ], [ 974315.011982739437371, 1918449.461291275685653 ], [ 974315.372579043963924, 1918445.249028991675004 ], [ 974318.216347000561655, 1918439.928075139177963 ], [ 974320.33775152079761, 1918427.673644672846422 ], [ 974320.327336216694675, 1918422.485724117606878 ], [ 974323.24850845860783, 1918414.787288947729394 ], [ 974325.790058358106762, 1918396.725903951795772 ] ] ] ] } },
{ "type": "Feature", "properties": { "pnu": "4146110500101570001", "jibun": "157-1답", "addr": "경기도 용인시 처인구 유방동 157-1", "gosi_year": "2025" }, "geometry": { "type": "MultiPolygon", "coordinates": [ [ [ [ 974107.953013406833634, 1918312.904906882438809 ], [ 974111.641679258784279, 1918300.815126584144309 ], [ 974115.605342842871323, 1918291.204925913363695 ], [ 974119.485003849957138, 1918281.020393325248733 ], [ 974121.222414374351501, 1918271.198041577124968 ], [ 974116.017363721621223, 1918263.046729556983337 ], [ 974112.134485129150562, 1918252.944190573878586 ], [ 974108.715223869890906, 1918261.157058765878901 ], [ 974097.24534001655411, 1918270.361088566016406 ], [ 974078.669643873116001, 1918269.426626975415275 ], [ 974073.806284050224349, 1918278.081955180736259 ], [ 974065.658465513028204, 1918282.813172195805237 ], [ 974064.075478019425645, 1918293.862230155849829 ], [ 974064.475589028326795, 1918308.103562447940931 ], [ 974065.271201916970313, 1918316.98189569148235 ], [ 974072.512565133627504, 1918315.314274409320205 ], [ 974076.579540627193637, 1918314.285181238781661 ], [ 974093.437762612244114, 1918308.759238341357559 ], [ 974107.953013406833634, 1918312.904906882438809 ] ] ] ] } },
{ "type": "Feature", "properties": { "pnu": "4146110500101580000", "jibun": "158답", "addr": "경기도 용인시 처인구 유방동 158", "gosi_year": "2025" }, "geometry": { "type": "MultiPolygon", "coordinates": [ [ [ [ 974147.866765596088953, 1918317.127311017131433 ], [ 974142.394114930997603, 1918313.951473315479234 ], [ 974137.298366522416472, 1918313.244680624920875 ], [ 974127.275481567136012, 1918315.175899651367217 ], [ 974121.16508557391353, 1918318.81277547031641 ], [ 974109.723916619550437, 1918317.179880325915292 ], [ 974093.89570947852917, 1918311.999554495094344 ], [ 974080.716910954681225, 1918315.795725689735264 ], [ 974070.91471676970832, 1918320.333762060850859 ], [ 974072.84907180769369, 1918323.760202639969066 ], [ 974089.940947002964094, 1918331.619804928544909 ], [ 974097.406171778100543, 1918338.267757735913619 ], [ 974111.103093888610601, 1918344.9397654668428 ], [ 974118.113407197641209, 1918348.354383253958076 ], [ 974120.970123850856908, 1918349.646781074814498 ], [ 974137.613734867190942, 1918362.342865340178832 ], [ 974153.931506602792069, 1918379.964750122511759 ], [ 974159.176641490892507, 1918379.43123673228547 ], [ 974160.323332080850378, 1918372.645822720834985 ], [ 974155.873867029091343, 1918366.174862744053826 ], [ 974150.572045848704875, 1918361.465720546199009 ], [ 974147.232286667916924, 1918351.615213565528393 ], [ 974147.778193404781632, 1918339.906894762534648 ], [ 974150.481042854953557, 1918329.860528065124527 ], [ 974147.866765596088953, 1918317.127311017131433 ] ] ] ] } },
{ "type": "Feature", "properties": { "pnu": "4146110500101600000", "jibun": "160전", "addr": "경기도 용인시 처인구 유방동 160", "gosi_year": "2025" }, "geometry": { "type": "MultiPolygon", "coordinates": [ [ [ [ 974203.539507670328021, 1918402.924606181681156 ], [ 974201.025776711641811, 1918405.438911032862961 ], [ 974194.241442624246702, 1918402.79379946924746 ], [ 974183.539781918399967, 1918394.878447546157986 ], [ 974172.541542697581463, 1918388.156197523232549 ], [ 974166.932461472461, 1918379.023404713487253 ], [ 974160.323332080850378, 1918372.645822720834985 ], [ 974159.176641490892507, 1918379.43123673228547 ], [ 974153.931506602792069, 1918379.964750122511759 ], [ 974155.594741523033008, 1918381.456377825001255 ], [ 974172.053344705374911, 1918396.218633054057136 ], [ 974203.385904584545642, 1918412.448702876688913 ], [ 974215.622537986142561, 1918415.552818580297753 ], [ 974226.472973157302476, 1918413.219381739851087 ], [ 974235.951509142410941, 1918415.15553023503162 ], [ 974238.663376421318389, 1918415.708981468342245 ], [ 974252.330561086186208, 1918424.699239834677428 ], [ 974262.85803834698163, 1918433.513160927919671 ], [ 974264.335776476422325, 1918426.572058657649904 ], [ 974253.616108007030562, 1918418.653803941560909 ], [ 974242.506404764950275, 1918410.321771763730794 ], [ 974239.538616124889813, 1918412.034788946853951 ], [ 974228.63953802594915, 1918409.891229334287345 ], [ 974216.914593603578396, 1918406.387565020471811 ], [ 974210.584917453001253, 1918405.603324744850397 ], [ 974203.539507670328021, 1918402.924606181681156 ] ] ] ] } },
{ "type": "Feature", "properties": { "pnu": "4146110500101890002", "jibun": "189-2답", "addr": "경기도 용인시 처인구 유방동 189-2", "gosi_year": "2025" }, "geometry": { "type": "MultiPolygon", "coordinates": [ [ [ [ 974057.646656731143594, 1918756.021003536647186 ], [ 974062.241638835519552, 1918751.437503466382623 ], [ 974066.462656255345792, 1918745.319578389870003 ], [ 974072.233472166350111, 1918740.412989518139511 ], [ 974079.768226983374916, 1918736.381735816365108 ], [ 974082.764807734638453, 1918735.388284599175677 ], [ 974089.324025145848282, 1918729.669845214579254 ], [ 974097.902828659978695, 1918717.40028591803275 ], [ 974089.312723158509471, 1918712.016788736684248 ], [ 974064.927960863453336, 1918700.614121997030452 ], [ 974067.828553936444223, 1918704.724188139196485 ], [ 974067.16252297279425, 1918717.72363961301744 ], [ 974064.862077163765207, 1918728.253692834172398 ], [ 974056.207970651099458, 1918740.649601370329037 ], [ 974053.742842830833979, 1918749.714096657466143 ], [ 974057.646656731143594, 1918756.021003536647186 ] ] ] ] } },
{ "type": "Feature", "properties": { "pnu": "4146110500101540000", "jibun": "154답", "addr": "경기도 용인시 처인구 유방동 154", "gosi_year": "2025" }, "geometry": { "type": "MultiPolygon", "coordinates": [ [ [ [ 974137.857232429436408, 1918238.521869128802791 ], [ 974134.270985457347706, 1918235.183124677743763 ], [ 974125.957165329135023, 1918228.359724622685462 ], [ 974113.814357337076217, 1918236.771619267994538 ], [ 974112.134485129150562, 1918252.944190573878586 ], [ 974123.786169892409816, 1918250.527553238440305 ], [ 974132.472671663854271, 1918241.991973472060636 ], [ 974137.857232429436408, 1918238.521869128802791 ] ] ] ] } },
{ "type": "Feature", "properties": { "pnu": "4146110500101490005", "jibun": "149-5답", "addr": "경기도 용인시 처인구 유방동 149-5", "gosi_year": "2025" }, "geometry": { "type": "MultiPolygon", "coordinates": [ [ [ [ 974303.175734497606754, 1918283.929436911828816 ], [ 974311.154184089042246, 1918286.306342645781115 ], [ 974311.262909143348224, 1918285.883932838216424 ], [ 974307.04033323272597, 1918282.246668739710003 ], [ 974304.046492770663463, 1918281.866639724932611 ], [ 974303.175734497606754, 1918283.929436911828816 ] ] ] ] } },
{ "type": "Feature", "properties": { "pnu": "4146110500100420000", "jibun": "42전", "addr": "경기도 용인시 처인구 유방동 42", "gosi_year": "2025" }, "geometry": { "type": "MultiPolygon", "coordinates": [ [ [ [ 973916.980673810932785, 1918199.986230467446148 ], [ 973926.225056235096417, 1918198.658891321159899 ], [ 973946.797543118824251, 1918202.5386534598656 ], [ 973950.663861408131197, 1918189.828174516791478 ], [ 973942.317128093214706, 1918187.560171006247401 ], [ 973927.911169960279949, 1918183.856749791651964 ], [ 973917.952843473874964, 1918177.194975881837308 ], [ 973915.465186018263921, 1918174.994980533141643 ], [ 973905.698568283347413, 1918166.967725501628593 ], [ 973899.34532495867461, 1918165.317945118295029 ], [ 973896.279677340644412, 1918168.186029164120555 ], [ 973897.34090407541953, 1918170.388562133535743 ], [ 973901.387873342027888, 1918173.897806361317635 ], [ 973903.93103646626696, 1918178.089732039021328 ], [ 973907.44703366945032, 1918187.241583090508357 ], [ 973909.560586876235902, 1918192.232467754743993 ], [ 973913.772873594658449, 1918193.732621192000806 ], [ 973916.980673810932785, 1918199.986230467446148 ] ] ] ] } },
{ "type": "Feature", "properties": { "pnu": "4146110500100420002", "jibun": "42-2전", "addr": "경기도 용인시 처인구 유방동 42-2", "gosi_year": "2025" }, "geometry": { "type": "MultiPolygon", "coordinates": [ [ [ [ 973938.725547385518439, 1918232.407671359367669 ], [ 973939.772066943463869, 1918224.636169729055837 ], [ 973946.47109849890694, 1918224.757717835251242 ], [ 973951.341763815842569, 1918223.918303429847583 ], [ 973972.160288637736812, 1918214.200065467273816 ], [ 973972.264267883147113, 1918214.014588239369914 ], [ 973970.261363403056748, 1918212.749666715040803 ], [ 973968.603790291352198, 1918210.248402030207217 ], [ 973973.722358709434047, 1918210.544234998524189 ], [ 973974.050579307484441, 1918210.799400877673179 ], [ 973975.078413564246148, 1918208.951689099660143 ], [ 973975.951178886694834, 1918207.268732563825324 ], [ 973962.918457244639285, 1918206.171038455329835 ], [ 973957.565870218793862, 1918205.854450362501666 ], [ 973954.897661388618872, 1918209.213242549914867 ], [ 973950.419390041497536, 1918208.453206557082012 ], [ 973946.797543118824251, 1918202.5386534598656 ], [ 973926.225056235096417, 1918198.658891321159899 ], [ 973916.980673810932785, 1918199.986230467446148 ], [ 973922.205680760438554, 1918204.72476941626519 ], [ 973928.102923296159133, 1918220.910293727181852 ], [ 973926.595216230605729, 1918223.314324931241572 ], [ 973927.905011754832231, 1918224.129085101187229 ], [ 973934.327260782360099, 1918228.055612864904106 ], [ 973938.725547385518439, 1918232.407671359367669 ] ] ] ] } },
{ "type": "Feature", "properties": { "pnu": "4146110500101560002", "jibun": "156-2답", "addr": "경기도 용인시 처인구 유방동 156-2", "gosi_year": "2025" }, "geometry": { "type": "MultiPolygon", "coordinates": [ [ [ [ 974003.121164473239332, 1918249.761572821065784 ], [ 973986.67220425826963, 1918260.476329433033243 ], [ 973979.314271509647369, 1918275.840227192034945 ], [ 973974.419410655740649, 1918291.210105417529121 ], [ 973975.509264238295145, 1918296.939112093299627 ], [ 973980.661613184958696, 1918296.439076286042109 ], [ 973985.652213147026487, 1918296.163807725766674 ], [ 973990.54687959048897, 1918295.894044073298573 ], [ 974008.488622102304362, 1918296.600944582140073 ], [ 974012.537382069858722, 1918297.04337399895303 ], [ 974017.245263069169596, 1918297.557291981298476 ], [ 974018.33100949425716, 1918295.697278808103874 ], [ 974019.743426138418727, 1918294.177406603703275 ], [ 974020.602706401608884, 1918290.320369030814618 ], [ 974022.643203355604783, 1918282.996440217364579 ], [ 974024.89725640125107, 1918276.361114406492561 ], [ 974026.992657246999443, 1918269.590679685119539 ], [ 974027.897909998078831, 1918267.434735931223258 ], [ 974029.254277009167708, 1918263.81997679406777 ], [ 974029.932901488966309, 1918260.771578758489341 ], [ 974027.063184070517309, 1918258.910471024224535 ], [ 974006.34409204556141, 1918253.20219807443209 ], [ 974003.121164473239332, 1918249.761572821065784 ] ] ] ] } },
{ "type": "Feature", "properties": { "pnu": "4146110500101560001", "jibun": "156-1전", "addr": "경기도 용인시 처인구 유방동 156-1", "gosi_year": "2025" }, "geometry": { "type": "MultiPolygon", "coordinates": [ [ [ [ 973985.553907527122647, 1918219.846078939037398 ], [ 973994.082595926243812, 1918228.741536756977439 ], [ 973995.57333217014093, 1918235.424053031718358 ], [ 973998.516059637651779, 1918241.455149339744821 ], [ 974004.357365974108689, 1918246.67424309044145 ], [ 974013.303360210848041, 1918251.117230902193114 ], [ 974025.050242382916622, 1918255.556417151587084 ], [ 974026.297153250547126, 1918255.820724128745496 ], [ 974024.31978396140039, 1918247.847283368464559 ], [ 974032.285119841340929, 1918247.552301193121821 ], [ 974038.554094945662655, 1918245.36102367285639 ], [ 974051.024576448719017, 1918250.156246912432835 ], [ 974048.494920576107688, 1918235.465344300493598 ], [ 974049.482218814548105, 1918224.052576329791918 ], [ 974022.040545867290348, 1918203.736527123954147 ], [ 974016.468108738656156, 1918221.218161822063848 ], [ 973985.553907527122647, 1918219.846078939037398 ] ] ] ] } },
{ "type": "Feature", "properties": { "pnu": "4146110500100410000", "jibun": "41답", "addr": "경기도 용인시 처인구 유방동 41", "gosi_year": "2025" }, "geometry": { "type": "MultiPolygon", "coordinates": [ [ [ [ 973938.725547385518439, 1918232.407671359367669 ], [ 973934.327260782360099, 1918228.055612864904106 ], [ 973927.905011754832231, 1918224.129085101187229 ], [ 973926.595216230605729, 1918223.314324931241572 ], [ 973912.588654901599512, 1918214.60674381791614 ], [ 973904.570478894282132, 1918229.876168792601675 ], [ 973897.144443108467385, 1918237.079608098138124 ], [ 973884.223721484770067, 1918247.153968335827813 ], [ 973876.995231042033993, 1918261.854442165466025 ], [ 973875.292864159448072, 1918265.632966710021719 ], [ 973862.668487430084497, 1918265.387783022597432 ], [ 973854.71543849282898, 1918268.008794022491202 ], [ 973848.777033637161367, 1918270.143347111064941 ], [ 973840.683141481829807, 1918273.729726442368701 ], [ 973838.197914307238534, 1918277.098548267502338 ], [ 973839.372203672421165, 1918280.834886114345863 ], [ 973842.325856446055695, 1918283.825110549340025 ], [ 973849.285582130192779, 1918287.502894507721066 ], [ 973859.158384931623004, 1918286.868962951935828 ], [ 973876.066574483877048, 1918290.611143115907907 ], [ 973883.691569223068655, 1918288.712584247812629 ], [ 973883.64157185703516, 1918284.357545755105093 ], [ 973897.851804449455813, 1918279.962156425230205 ], [ 973916.46483293408528, 1918282.853658010717481 ], [ 973930.513416338013485, 1918282.675479503814131 ], [ 973930.940299122477882, 1918267.737046008231118 ], [ 973933.885852504055947, 1918255.760146999265999 ], [ 973937.68538959370926, 1918245.546047513373196 ], [ 973973.825965627562255, 1918256.077937227906659 ], [ 973985.557244538911618, 1918250.184234319720417 ], [ 973993.671280954615213, 1918248.51900039264001 ], [ 973997.65793126472272, 1918244.773390987655148 ], [ 973997.460333004477434, 1918243.888780123321339 ], [ 973996.015851976932026, 1918242.555933917639777 ], [ 973988.04892157309223, 1918226.655238216044381 ], [ 973979.101414089789614, 1918218.33077125181444 ], [ 973972.310432130470872, 1918224.077421521535143 ], [ 973963.550968183437362, 1918231.479829913238063 ], [ 973955.801364916493185, 1918232.686316529288888 ], [ 973941.016646310104989, 1918234.676678406540304 ], [ 973938.725547385518439, 1918232.407671359367669 ] ] ] ] } },
{ "type": "Feature", "properties": { "pnu": "4146110500101560003", "jibun": "156-3답", "addr": "경기도 용인시 처인구 유방동 156-3", "gosi_year": "2025" }, "geometry": { "type": "MultiPolygon", "coordinates": [ [ [ [ 973930.513416338013485, 1918282.675479503814131 ], [ 973950.890160429989919, 1918289.806007056497037 ], [ 973956.396194398170337, 1918291.732156375655904 ], [ 973975.509264238295145, 1918296.939112093299627 ], [ 973974.419410655740649, 1918291.210105417529121 ], [ 973979.314271509647369, 1918275.840227192034945 ], [ 973986.67220425826963, 1918260.476329433033243 ], [ 974003.121164473239332, 1918249.761572821065784 ], [ 973997.65793126472272, 1918244.773390987655148 ], [ 973993.671280954615213, 1918248.51900039264001 ], [ 973985.557244538911618, 1918250.184234319720417 ], [ 973973.825965627562255, 1918256.077937227906659 ], [ 973937.68538959370926, 1918245.546047513373196 ], [ 973933.885852504055947, 1918255.760146999265999 ], [ 973930.940299122477882, 1918267.737046008231118 ], [ 973930.513416338013485, 1918282.675479503814131 ] ] ] ] } },
{ "type": "Feature", "properties": { "pnu": "4146110500101550000", "jibun": "155전", "addr": "경기도 용인시 처인구 유방동 155", "gosi_year": "2025" }, "geometry": { "type": "MultiPolygon", "coordinates": [ [ [ [ 973975.078413564246148, 1918208.951689099660143 ], [ 973985.553907527122647, 1918219.846078939037398 ], [ 974016.468108738656156, 1918221.218161822063848 ], [ 974022.040545867290348, 1918203.736527123954147 ], [ 974004.241965402034111, 1918198.529622624162585 ], [ 973982.299985417397693, 1918195.022952898871154 ], [ 973975.951178886694834, 1918207.268732563825324 ], [ 973975.078413564246148, 1918208.951689099660143 ] ] ] ] } },
{ "type": "Feature", "properties": { "pnu": "4146110500100400001", "jibun": "40-1전", "addr": "경기도 용인시 처인구 유방동 40-1", "gosi_year": "2025" }, "geometry": { "type": "MultiPolygon", "coordinates": [ [ [ [ 973799.030526486691087, 1918289.274806849425659 ], [ 973801.609924290678464, 1918290.107849842403084 ], [ 973816.140561027568765, 1918292.056294843088835 ], [ 973830.596507151611149, 1918288.949104530271143 ], [ 973848.481880822917446, 1918290.149110953090712 ], [ 973849.285582130192779, 1918287.502894507721066 ], [ 973842.325856446055695, 1918283.825110549340025 ], [ 973839.372203672421165, 1918280.834886114345863 ], [ 973838.197914307238534, 1918277.098548267502338 ], [ 973840.683141481829807, 1918273.729726442368701 ], [ 973848.777033637161367, 1918270.143347111064941 ], [ 973848.548402289743535, 1918265.087525661103427 ], [ 973843.597151313326322, 1918257.295729689765722 ], [ 973827.084423307213001, 1918261.806242923950776 ], [ 973815.446754694450647, 1918264.984510287176818 ], [ 973810.573676044470631, 1918268.583862425293773 ], [ 973807.258471498498693, 1918280.031922768335789 ], [ 973802.249566504033282, 1918280.248311005998403 ], [ 973801.728526714956388, 1918280.013156327186152 ], [ 973799.030526486691087, 1918289.274806849425659 ] ] ] ] } },
{ "type": "Feature", "properties": { "pnu": "4146110500104070001", "jibun": "407-1답", "addr": "경기도 용인시 처인구 유방동 407-1", "gosi_year": "2025" }, "geometry": { "type": "MultiPolygon", "coordinates": [ [ [ [ 974789.78490236075595, 1917139.847671033581719 ], [ 974820.100579116959125, 1917139.567597073502839 ], [ 974819.169948881259188, 1917037.937225876841694 ], [ 974795.576118829543702, 1917038.306745070964098 ], [ 974792.82387102919165, 1917044.301944767590612 ], [ 974789.136609832406975, 1917044.358405307633802 ], [ 974789.78490236075595, 1917139.847671033581719 ] ] ] ] } },
{ "type": "Feature", "properties": { "pnu": "4146110500104060002", "jibun": "406-2답", "addr": "경기도 용인시 처인구 유방동 406-2", "gosi_year": "2025" }, "geometry": { "type": "MultiPolygon", "coordinates": [ [ [ [ 974758.983825118746608, 1917044.819544697413221 ], [ 974760.100939149037004, 1917140.120409950613976 ], [ 974789.78490236075595, 1917139.847671033581719 ], [ 974789.136609832406975, 1917044.358405307633802 ], [ 974758.983825118746608, 1917044.819544697413221 ] ] ] ] } },
{ "type": "Feature", "properties": { "pnu": "4146110500101910002", "jibun": "191-2답", "addr": "경기도 용인시 처인구 유방동 191-2", "gosi_year": "2025" }, "geometry": { "type": "MultiPolygon", "coordinates": [ [ [ [ 974139.366647645249031, 1918742.371387569932267 ], [ 974144.135863769100979, 1918733.493641856126487 ], [ 974147.96593852667138, 1918733.033577082213014 ], [ 974153.23673420958221, 1918723.356492153601721 ], [ 974147.343289921991527, 1918725.107959270477295 ], [ 974138.742110075079836, 1918740.899262728868052 ], [ 974139.366647645249031, 1918742.371387569932267 ] ] ] ] } },
{ "type": "Feature", "properties": { "pnu": "4146110500101910003", "jibun": "191-3답", "addr": "경기도 용인시 처인구 유방동 191-3", "gosi_year": "2025" }, "geometry": { "type": "MultiPolygon", "coordinates": [ [ [ [ 974139.366647645249031, 1918742.371387569932267 ], [ 974141.786863316199742, 1918748.077369939768687 ], [ 974143.693043345818296, 1918742.008661415195093 ], [ 974147.96593852667138, 1918733.033577082213014 ], [ 974144.135863769100979, 1918733.493641856126487 ], [ 974139.366647645249031, 1918742.371387569932267 ] ] ] ] } },
{ "type": "Feature", "properties": { "pnu": "4146110500101910001", "jibun": "191-1답", "addr": "경기도 용인시 처인구 유방동 191-1", "gosi_year": "2025" }, "geometry": { "type": "MultiPolygon", "coordinates": [ [ [ [ 974141.786863316199742, 1918748.077369939768687 ], [ 974139.366647645249031, 1918742.371387569932267 ], [ 974138.742110075079836, 1918740.899262728868052 ], [ 974147.343289921991527, 1918725.107959270477295 ], [ 974145.245405317167751, 1918725.731804473558441 ], [ 974136.729984418256208, 1918726.53749914211221 ], [ 974129.169294154504314, 1918740.417048723436892 ], [ 974132.320438951719552, 1918767.163961813086644 ], [ 974137.233835583901964, 1918768.547451979946345 ], [ 974141.786863316199742, 1918748.077369939768687 ] ] ] ] } }
]
}
