{
"type": "FeatureCollection",
"name": "yongin_yubang_priority_queue",
"crs": { "type": "name", "properties": { "name": "urn:ogc:def:crs:EPSG::5179" } },
"features": [
{ "type": "Feature", "properties": { "rank": 1, "site_id": "YUBANG_4146110500100780003", "pnu": "4146110500100780003", "jibun": "78-3답", "addr": "경기도 용인시 처인구 유방동 78-3", "inspection_priority_score": 37, "priority_tier": "3순위", "weight_coverage": 0.75, "anomaly_score": 0.231, "change_type_hint": "no_significant_change", "sar_vv_delta": 3.337, "recent_rainfall_mm": 145.7, "adjacent_to_water": false, "changed_area_ratio_source": "pixel_diff", "evidence_confidence_json": { "level": "보통", "score": 2, "factors": [ { "label": "유효 광학 장면 충분", "effect": 1, "detail": "현재기간 3장" }, { "label": "기준기간 관측 부족", "effect": -1, "detail": "기준기간 2장" }, { "label": "영상 품질 양호", "effect": 1, "detail": "현재기간 평균 구름 0%" }, { "label": "NDVI·NDMI 방향 불일치", "effect": -1, "detail": "식생과 수분 지표가 반대로 움직임" }, { "label": "광학·SAR 센서 일치", "effect": 2, "detail": "서로 다른 센서가 같은 변화를 가리킴" }, { "label": "변화면적 픽셀 실측", "effect": 1, "detail": "NDVI 픽셀 단위 차분으로 직접 측정" }, { "label": "강우 교란 가능성", "effect": -1, "detail": "최근 14일 146mm 강우 + 습윤 신호 — 기상에 의한 변화일 수 있음" } ] }, "chg_status": "ok", "contributing_factors_json": [ { "factor": "anomaly_score_mean", "value": 0.231, "weight": 0.3 }, { "factor": "changed_area_ratio", "value": 0.0443, "weight": 0.15 }, { "factor": "sar_anomaly_mean", "value": 1.0, "weight": 0.1 }, { "factor": "recent_rainfall_mm", "value": 145.7, "weight": 0.1 }, { "factor": "adjacent_to_water", "value": false, "weight": 0.1 } ], "baseline_scenes_json": [ { "source": "sentinel2", "acquisition_date": "2024-06-10", "cloud_cover_pct": 0, "indices": { "ndvi_mean": 0.8304, "ndmi_mean": 0.3227 } }, { "source": "sentinel2", "acquisition_date": "2024-07-10", "cloud_cover_pct": 0, "indices": { "ndvi_mean": 0.7553, "ndmi_mean": 0.1658 } } ], "current_scenes_json": [ { "source": "sentinel2", "acquisition_date": "2026-06-05", "cloud_cover_pct": 0, "indices": { "ndvi_mean": 0.8169, "ndmi_mean": 0.3778 } }, { "source": "sentinel2", "acquisition_date": "2026-06-10", "cloud_cover_pct": 0, "indices": { "ndvi_mean": 0.5336, "ndmi_mean": 0.2701 } }, { "source": "sentinel2", "acquisition_date": "2026-06-15", "cloud_cover_pct": 0, "indices": { "ndvi_mean": 0.681, "ndmi_mean": 0.2076 } } ] }, "geometry": { "type": "MultiPolygon", "coordinates": [ [ [ [ 973873.699209842132404, 1917811.450392105150968 ], [ 973874.382782281376421, 1917811.987570363795385 ], [ 973870.826258243992925, 1917813.70769475819543 ], [ 973875.21838913531974, 1917815.948610791005194 ], [ 973883.733531560748816, 1917817.17113537248224 ], [ 973894.5067609755788, 1917820.468918101862073 ], [ 973899.877841881476343, 1917814.068028853740543 ], [ 973902.098989652469754, 1917811.421322620939463 ], [ 973906.343893965240568, 1917808.310102708637714 ], [ 973914.23546481935773, 1917802.187785329064354 ], [ 973926.822239946108311, 1917797.77498973114416 ], [ 973931.73206053103786, 1917792.993907056516036 ], [ 973932.133716146927327, 1917790.119904679246247 ], [ 973926.606540815671906, 1917792.896031301468611 ], [ 973921.970021911663935, 1917796.051303424639627 ], [ 973911.911846000351943, 1917798.682430869434029 ], [ 973902.709072128403932, 1917804.101951319491491 ], [ 973894.751593629829586, 1917805.695382133824751 ], [ 973886.070451259380206, 1917805.785223186947405 ], [ 973884.878946238080971, 1917804.844886328326538 ], [ 973874.894594005774707, 1917810.854307318571955 ], [ 973873.699209842132404, 1917811.450392105150968 ] ] ] ] } },
{ "type": "Feature", "properties": { "rank": 2, "site_id": "YUBANG_4146110500100760003", "pnu": "4146110500100760003", "jibun": "76-3장", "addr": "경기도 용인시 처인구 유방동 76-3", "inspection_priority_score": 34, "priority_tier": "3순위", "weight_coverage": 0.75, "anomaly_score": 0.191, "change_type_hint": "no_significant_change", "sar_vv_delta": -4.572, "recent_rainfall_mm": 145.7, "adjacent_to_water": false, "changed_area_ratio_source": "pixel_diff", "evidence_confidence_json": { "level": "낮음", "score": -1, "factors": [ { "label": "유효 광학 장면 충분", "effect": 1, "detail": "현재기간 3장" }, { "label": "기준기간 관측 부족", "effect": -1, "detail": "기준기간 2장" }, { "label": "영상 품질 양호", "effect": 1, "detail": "현재기간 평균 구름 0%" }, { "label": "NDVI·NDMI 방향 불일치", "effect": -1, "detail": "식생과 수분 지표가 반대로 움직임" }, { "label": "광학·SAR 센서 불일치", "effect": -1, "detail": "두 센서가 다른 방향을 가리킴" }, { "label": "변화면적 픽셀 실측", "effect": 1, "detail": "NDVI 픽셀 단위 차분으로 직접 측정" }, { "label": "강우 교란 가능성", "effect": -1, "detail": "최근 14일 146mm 강우 + 습윤 신호 — 기상에 의한 변화일 수 있음" } ] }, "chg_status": "ok", "contributing_factors_json": [ { "factor": "anomaly_score_mean", "value": 0.191, "weight": 0.3 }, { "factor": "changed_area_ratio", "value": 0.0, "weight": 0.15 }, { "factor": "sar_anomaly_mean", "value": 1.0, "weight": 0.1 }, { "factor": "recent_rainfall_mm", "value": 145.7, "weight": 0.1 }, { "factor": "adjacent_to_water", "value": false, "weight": 0.1 } ], "baseline_scenes_json": [ { "source": "sentinel2", "acquisition_date": "2024-06-10", "cloud_cover_pct": 0, "indices": { "ndvi_mean": 0.8704, "ndmi_mean": 0.3537 } }, { "source": "sentinel2", "acquisition_date": "2024-07-10", "cloud_cover_pct": 0, "indices": { "ndvi_mean": 0.8942, "ndmi_mean": 0.2861 } } ], "current_scenes_json": [ { "source": "sentinel2", "acquisition_date": "2026-06-05", "cloud_cover_pct": 0, "indices": { "ndvi_mean": 0.8631, "ndmi_mean": 0.3919 } }, { "source": "sentinel2", "acquisition_date": "2026-06-10", "cloud_cover_pct": 0, "indices": { "ndvi_mean": 0.6908, "ndmi_mean": 0.3209 } }, { "source": "sentinel2", "acquisition_date": "2026-06-15", "cloud_cover_pct": 0, "indices": { "ndvi_mean": 0.8067, "ndmi_mean": 0.3126 } } ] }, "geometry": { "type": "MultiPolygon", "coordinates": [ [ [ [ 973961.912450942560099, 1917827.65190694318153 ], [ 973959.01624831254594, 1917825.129195528570563 ], [ 973951.494581129751168, 1917830.69277580967173 ], [ 973944.543509735492989, 1917835.843501686584204 ], [ 973931.401499585947022, 1917845.469200125429779 ], [ 973933.818681632517837, 1917849.088015641085804 ], [ 973951.315222356352024, 1917836.288542417809367 ], [ 973954.320224242052063, 1917834.050534548703581 ], [ 973961.912450942560099, 1917827.65190694318153 ] ] ] ] } },
{ "type": "Feature", "properties": { "rank": 3, "site_id": "YUBANG_4146110500100760009", "pnu": "4146110500100760009", "jibun": "76-9전", "addr": "경기도 용인시 처인구 유방동 76-9", "inspection_priority_score": 33, "priority_tier": "3순위", "weight_coverage": 0.75, "anomaly_score": 0.159, "change_type_hint": "no_significant_change", "sar_vv_delta": -3.178, "recent_rainfall_mm": 145.7, "adjacent_to_water": false, "changed_area_ratio_source": "pixel_diff", "evidence_confidence_json": { "level": "보통", "score": 1, "factors": [ { "label": "유효 광학 장면 충분", "effect": 1, "detail": "현재기간 3장" }, { "label": "기준기간 관측 충분", "effect": 1, "detail": "기준기간 3장" }, { "label": "영상 품질 양호", "effect": 1, "detail": "현재기간 평균 구름 0%" }, { "label": "NDVI·NDMI 방향 불일치", "effect": -1, "detail": "식생과 수분 지표가 반대로 움직임" }, { "label": "광학·SAR 센서 불일치", "effect": -1, "detail": "두 센서가 다른 방향을 가리킴" }, { "label": "변화면적 픽셀 실측", "effect": 1, "detail": "NDVI 픽셀 단위 차분으로 직접 측정" }, { "label": "강우 교란 가능성", "effect": -1, "detail": "최근 14일 146mm 강우 + 습윤 신호 — 기상에 의한 변화일 수 있음" } ] }, "chg_status": "ok", "contributing_factors_json": [ { "factor": "anomaly_score_mean", "value": 0.159, "weight": 0.3 }, { "factor": "changed_area_ratio", "value": 0.0, "weight": 0.15 }, { "factor": "sar_anomaly_mean", "value": 1.0, "weight": 0.1 }, { "factor": "recent_rainfall_mm", "value": 145.7, "weight": 0.1 }, { "factor": "adjacent_to_water", "value": false, "weight": 0.1 } ], "baseline_scenes_json": [ { "source": "sentinel2", "acquisition_date": "2024-06-10", "cloud_cover_pct": 0, "indices": { "ndvi_mean": 0.8825, "ndmi_mean": 0.3454 } }, { "source": "sentinel2", "acquisition_date": "2024-07-10", "cloud_cover_pct": 0, "indices": { "ndvi_mean": 0.8041, "ndmi_mean": 0.2923 } }, { "source": "sentinel2", "acquisition_date": "2024-08-04", "cloud_cover_pct": 26.9, "indices": { "ndvi_mean": 0.8759, "ndmi_mean": 0.2645 } } ], "current_scenes_json": [ { "source": "sentinel2", "acquisition_date": "2026-06-05", "cloud_cover_pct": 0, "indices": { "ndvi_mean": 0.8887, "ndmi_mean": 0.4128 } }, { "source": "sentinel2", "acquisition_date": "2026-06-10", "cloud_cover_pct": 0, "indices": { "ndvi_mean": 0.7373, "ndmi_mean": 0.3563 } }, { "source": "sentinel2", "acquisition_date": "2026-06-15", "cloud_cover_pct": 0, "indices": { "ndvi_mean": 0.8635, "ndmi_mean": 0.3714 } } ] }, "geometry": { "type": "MultiPolygon", "coordinates": [ [ [ [ 973971.457003447692841, 1917868.387588070938364 ], [ 973973.587182233342901, 1917858.360239816829562 ], [ 973966.34762904420495, 1917860.938493096269667 ], [ 973960.687331198249012, 1917862.924631420290098 ], [ 973951.851814825669862, 1917837.95405748160556 ], [ 973951.315222356352024, 1917836.288542417809367 ], [ 973933.818681632517837, 1917849.088015641085804 ], [ 973931.401499585947022, 1917845.469200125429779 ], [ 973923.674951155320741, 1917850.85093422466889 ], [ 973916.728005403769203, 1917852.808883057907224 ], [ 973912.645833097398281, 1917856.449037045240402 ], [ 973916.507194738369435, 1917865.128248349763453 ], [ 973920.775693696457893, 1917880.675630974350497 ], [ 973922.995077732251957, 1917893.400942429667339 ], [ 973937.355341997346841, 1917886.751644971780479 ], [ 973964.090216447832063, 1917874.885985726024956 ], [ 973971.457003447692841, 1917868.387588070938364 ] ] ] ] } },
{ "type": "Feature", "properties": { "rank": 4, "site_id": "YUBANG_4146110500100710012", "pnu": "4146110500100710012", "jibun": "71-12전", "addr": "경기도 용인시 처인구 유방동 71-12", "inspection_priority_score": 32, "priority_tier": "3순위", "weight_coverage": 0.75, "anomaly_score": 0.129, "change_type_hint": "no_significant_change", "sar_vv_delta": 3.701, "recent_rainfall_mm": 145.7, "adjacent_to_water": false, "changed_area_ratio_source": "pixel_diff", "evidence_confidence_json": { "level": "보통", "score": 1, "factors": [ { "label": "유효 광학 장면 부족", "effect": -1, "detail": "현재기간 2장(기준 3장)" }, { "label": "기준기간 관측 충분", "effect": 1, "detail": "기준기간 3장" }, { "label": "영상 품질 양호", "effect": 1, "detail": "현재기간 평균 구름 0%" }, { "label": "NDVI·NDMI 방향 일치", "effect": 1, "detail": "둘 다 증가" }, { "label": "광학·SAR 센서 불일치", "effect": -1, "detail": "두 센서가 다른 방향을 가리킴" }, { "label": "변화면적 픽셀 실측", "effect": 1, "detail": "NDVI 픽셀 단위 차분으로 직접 측정" }, { "label": "강우 교란 가능성", "effect": -1, "detail": "최근 14일 146mm 강우 + 습윤 신호 — 기상에 의한 변화일 수 있음" } ] }, "chg_status": "ok", "contributing_factors_json": [ { "factor": "anomaly_score_mean", "value": 0.129, "weight": 0.3 }, { "factor": "changed_area_ratio", "value": 0.0, "weight": 0.15 }, { "factor": "sar_anomaly_mean", "value": 1.0, "weight": 0.1 }, { "factor": "recent_rainfall_mm", "value": 145.7, "weight": 0.1 }, { "factor": "adjacent_to_water", "value": false, "weight": 0.1 } ], "baseline_scenes_json": [ { "source": "sentinel2", "acquisition_date": "2024-06-10", "cloud_cover_pct": 0, "indices": { "ndvi_mean": 0.6728, "ndmi_mean": 0.2175 } }, { "source": "sentinel2", "acquisition_date": "2024-07-10", "cloud_cover_pct": 0, "indices": { "ndvi_mean": 0.6697, "ndmi_mean": 0.2354 } }, { "source": "sentinel2", "acquisition_date": "2024-08-04", "cloud_cover_pct": 0, "indices": { "ndvi_mean": 0.7338, "ndmi_mean": 0.2415 } } ], "current_scenes_json": [ { "source": "sentinel2", "acquisition_date": "2026-06-05", "cloud_cover_pct": 0, "indices": { "ndvi_mean": 0.7463, "ndmi_mean": 0.3277 } }, { "source": "sentinel2", "acquisition_date": "2026-06-15", "cloud_cover_pct": 0, "indices": { "ndvi_mean": 0.7048, "ndmi_mean": 0.2643 } } ] }, "geometry": { "type": "MultiPolygon", "coordinates": [ [ [ [ 973765.149562128121033, 1917874.664402870694175 ], [ 973771.603861479554325, 1917873.493750287918374 ], [ 973779.456297574215569, 1917872.830511388368905 ], [ 973792.433730507735163, 1917855.324751013889909 ], [ 973786.73503346031066, 1917856.854270566254854 ], [ 973768.368433231371455, 1917864.848216661252081 ], [ 973760.925207531312481, 1917868.609086154028773 ], [ 973765.149562128121033, 1917874.664402870694175 ] ] ] ] } },
{ "type": "Feature", "properties": { "rank": 5, "site_id": "YUBANG_4146110500100710013", "pnu": "4146110500100710013", "jibun": "71-13전", "addr": "경기도 용인시 처인구 유방동 71-13", "inspection_priority_score": 30, "priority_tier": "3순위", "weight_coverage": 0.75, "anomaly_score": 0.084, "change_type_hint": "no_significant_change", "sar_vv_delta": 3.419, "recent_rainfall_mm": 145.7, "adjacent_to_water": false, "changed_area_ratio_source": "pixel_diff", "evidence_confidence_json": { "level": "높음", "score": 4, "factors": [ { "label": "유효 광학 장면 충분", "effect": 1, "detail": "현재기간 3장" }, { "label": "기준기간 관측 충분", "effect": 1, "detail": "기준기간 3장" }, { "label": "영상 품질 양호", "effect": 1, "detail": "현재기간 평균 구름 0%" }, { "label": "NDVI·NDMI 방향 불일치", "effect": -1, "detail": "식생과 수분 지표가 반대로 움직임" }, { "label": "광학·SAR 센서 일치", "effect": 2, "detail": "서로 다른 센서가 같은 변화를 가리킴" }, { "label": "변화면적 픽셀 실측", "effect": 1, "detail": "NDVI 픽셀 단위 차분으로 직접 측정" }, { "label": "강우 교란 가능성", "effect": -1, "detail": "최근 14일 146mm 강우 + 습윤 신호 — 기상에 의한 변화일 수 있음" } ] }, "chg_status": "ok", "contributing_factors_json": [ { "factor": "anomaly_score_mean", "value": 0.084, "weight": 0.3 }, { "factor": "changed_area_ratio", "value": 0.0, "weight": 0.15 }, { "factor": "sar_anomaly_mean", "value": 1.0, "weight": 0.1 }, { "factor": "recent_rainfall_mm", "value": 145.7, "weight": 0.1 }, { "factor": "adjacent_to_water", "value": false, "weight": 0.1 } ], "baseline_scenes_json": [ { "source": "sentinel2", "acquisition_date": "2024-06-10", "cloud_cover_pct": 0, "indices": { "ndvi_mean": 0.7023, "ndmi_mean": 0.2318 } }, { "source": "sentinel2", "acquisition_date": "2024-07-10", "cloud_cover_pct": 0, "indices": { "ndvi_mean": 0.7043, "ndmi_mean": 0.2413 } }, { "source": "sentinel2", "acquisition_date": "2024-08-04", "cloud_cover_pct": 0, "indices": { "ndvi_mean": 0.7455, "ndmi_mean": 0.2185 } } ], "current_scenes_json": [ { "source": "sentinel2", "acquisition_date": "2026-06-05", "cloud_cover_pct": 0, "indices": { "ndvi_mean": 0.7455, "ndmi_mean": 0.3157 } }, { "source": "sentinel2", "acquisition_date": "2026-06-10", "cloud_cover_pct": 0.5, "indices": { "ndvi_mean": 0.615, "ndmi_mean": 0.2437 } }, { "source": "sentinel2", "acquisition_date": "2026-06-15", "cloud_cover_pct": 0, "indices": { "ndvi_mean": 0.7029, "ndmi_mean": 0.2587 } } ] }, "geometry": { "type": "MultiPolygon", "coordinates": [ [ [ [ 973792.433730507735163, 1917855.324751013889909 ], [ 973779.456297574215569, 1917872.830511388368905 ], [ 973785.645663950941525, 1917872.409966642968357 ], [ 973806.214594494784251, 1917868.614745936822146 ], [ 973804.577341499272734, 1917856.714035290991887 ], [ 973804.674588996218517, 1917852.0373435751535 ], [ 973792.433730507735163, 1917855.324751013889909 ] ] ] ] } },
{ "type": "Feature", "properties": { "rank": 6, "site_id": "YUBANG_4146110500100760006", "pnu": "4146110500100760006", "jibun": "76-6전", "addr": "경기도 용인시 처인구 유방동 76-6", "inspection_priority_score": 29, "priority_tier": "정상", "weight_coverage": 0.75, "anomaly_score": 0.135, "change_type_hint": "no_significant_change", "sar_vv_delta": -2.41, "recent_rainfall_mm": 145.7, "adjacent_to_water": false, "changed_area_ratio_source": "pixel_diff", "evidence_confidence_json": { "level": "낮음", "score": -1, "factors": [ { "label": "유효 광학 장면 충분", "effect": 1, "detail": "현재기간 3장" }, { "label": "기준기간 관측 부족", "effect": -1, "detail": "기준기간 2장" }, { "label": "영상 품질 양호", "effect": 1, "detail": "현재기간 평균 구름 2%" }, { "label": "NDVI·NDMI 방향 불일치", "effect": -1, "detail": "식생과 수분 지표가 반대로 움직임" }, { "label": "광학·SAR 센서 불일치", "effect": -1, "detail": "두 센서가 다른 방향을 가리킴" }, { "label": "변화면적 픽셀 실측", "effect": 1, "detail": "NDVI 픽셀 단위 차분으로 직접 측정" }, { "label": "강우 교란 가능성", "effect": -1, "detail": "최근 14일 146mm 강우 + 습윤 신호 — 기상에 의한 변화일 수 있음" } ] }, "chg_status": "ok", "contributing_factors_json": [ { "factor": "anomaly_score_mean", "value": 0.135, "weight": 0.3 }, { "factor": "changed_area_ratio", "value": 0.0, "weight": 0.15 }, { "factor": "sar_anomaly_mean", "value": 0.803, "weight": 0.1 }, { "factor": "recent_rainfall_mm", "value": 145.7, "weight": 0.1 }, { "factor": "adjacent_to_water", "value": false, "weight": 0.1 } ], "baseline_scenes_json": [ { "source": "sentinel2", "acquisition_date": "2024-06-10", "cloud_cover_pct": 0, "indices": { "ndvi_mean": 0.8908, "ndmi_mean": 0.359 } }, { "source": "sentinel2", "acquisition_date": "2024-07-10", "cloud_cover_pct": 0, "indices": { "ndvi_mean": 0.8901, "ndmi_mean": 0.3009 } } ], "current_scenes_json": [ { "source": "sentinel2", "acquisition_date": "2026-06-05", "cloud_cover_pct": 0, "indices": { "ndvi_mean": 0.9017, "ndmi_mean": 0.4322 } }, { "source": "sentinel2", "acquisition_date": "2026-06-10", "cloud_cover_pct": 5.8, "indices": { "ndvi_mean": 0.7151, "ndmi_mean": 0.3683 } }, { "source": "sentinel2", "acquisition_date": "2026-06-15", "cloud_cover_pct": 0, "indices": { "ndvi_mean": 0.8738, "ndmi_mean": 0.3919 } } ] }, "geometry": { "type": "MultiPolygon", "coordinates": [ [ [ [ 973991.109957845066674, 1917750.613642920041457 ], [ 973983.945614604977891, 1917755.886447451077402 ], [ 973978.899153839913197, 1917767.348647205391899 ], [ 973971.768018553149886, 1917772.66326015163213 ], [ 973967.383103307452984, 1917778.978970400756225 ], [ 973960.765893463627435, 1917805.132744264556095 ], [ 973961.901240935432725, 1917813.040661840466782 ], [ 973960.579714698484167, 1917818.520509409951046 ], [ 973997.899990708916448, 1917818.108447926584631 ], [ 973996.863939063739963, 1917813.480727093527094 ], [ 973990.519509847043082, 1917813.499247576342896 ], [ 973993.621767376782373, 1917801.287614105502144 ], [ 974005.106488841935061, 1917758.369654364185408 ], [ 974000.378576214658096, 1917755.766653874190524 ], [ 973994.196330237551592, 1917752.425626562908292 ], [ 973991.109957845066674, 1917750.613642920041457 ] ] ] ] } },
{ "type": "Feature", "properties": { "rank": 7, "site_id": "YUBANG_4146110500100710014", "pnu": "4146110500100710014", "jibun": "71-14도", "addr": "경기도 용인시 처인구 유방동 71-14", "inspection_priority_score": 28, "priority_tier": "정상", "weight_coverage": 0.75, "anomaly_score": 0.035, "change_type_hint": "no_significant_change", "sar_vv_delta": 3.917, "recent_rainfall_mm": 145.7, "adjacent_to_water": false, "changed_area_ratio_source": "pixel_diff", "evidence_confidence_json": { "level": "높음", "score": 3, "factors": [ { "label": "유효 광학 장면 충분", "effect": 1, "detail": "현재기간 3장" }, { "label": "기준기간 관측 충분", "effect": 1, "detail": "기준기간 3장" }, { "label": "영상 품질 양호", "effect": 1, "detail": "현재기간 평균 구름 0%" }, { "label": "변화면적 픽셀 실측", "effect": 1, "detail": "NDVI 픽셀 단위 차분으로 직접 측정" }, { "label": "강우 교란 가능성", "effect": -1, "detail": "최근 14일 146mm 강우 + 습윤 신호 — 기상에 의한 변화일 수 있음" } ] }, "chg_status": "ok", "contributing_factors_json": [ { "factor": "anomaly_score_mean", "value": 0.035, "weight": 0.3 }, { "factor": "changed_area_ratio", "value": 0.0, "weight": 0.15 }, { "factor": "sar_anomaly_mean", "value": 1.0, "weight": 0.1 }, { "factor": "recent_rainfall_mm", "value": 145.7, "weight": 0.1 }, { "factor": "adjacent_to_water", "value": false, "weight": 0.1 } ], "baseline_scenes_json": [ { "source": "sentinel2", "acquisition_date": "2024-06-10", "cloud_cover_pct": 0, "indices": { "ndvi_mean": 0.3262, "ndmi_mean": 0.1006 } }, { "source": "sentinel2", "acquisition_date": "2024-07-10", "cloud_cover_pct": 0, "indices": { "ndvi_mean": 0.3554, "ndmi_mean": 0.1237 } }, { "source": "sentinel2", "acquisition_date": "2024-08-04", "cloud_cover_pct": 0, "indices": { "ndvi_mean": 0.3319, "ndmi_mean": 0.1186 } } ], "current_scenes_json": [ { "source": "sentinel2", "acquisition_date": "2026-06-05", "cloud_cover_pct": 0, "indices": { "ndvi_mean": 0.3699, "ndmi_mean": 0.1667 } }, { "source": "sentinel2", "acquisition_date": "2026-06-10", "cloud_cover_pct": 0, "indices": { "ndvi_mean": 0.3035, "ndmi_mean": 0.1002 } }, { "source": "sentinel2", "acquisition_date": "2026-06-15", "cloud_cover_pct": 0, "indices": { "ndvi_mean": 0.2878, "ndmi_mean": 0.1002 } } ] }, "geometry": { "type": "MultiPolygon", "coordinates": [ [ [ [ 973799.138314361334778, 1917846.278844385640696 ], [ 973797.881766474805772, 1917847.974824008764699 ], [ 973804.715239401091821, 1917850.08189065894112 ], [ 973804.790921136154793, 1917846.431912945816293 ], [ 973804.548953482415527, 1917846.420196218881756 ], [ 973799.138314361334778, 1917846.278844385640696 ] ] ] ] } },
{ "type": "Feature", "properties": { "rank": 8, "site_id": "YUBANG_4146110500101400001", "pnu": "4146110500101400001", "jibun": "140-1전", "addr": "경기도 용인시 처인구 유방동 140-1", "inspection_priority_score": 27, "priority_tier": "정상", "weight_coverage": 0.75, "anomaly_score": 0.183, "change_type_hint": "no_significant_change", "sar_vv_delta": -1.463, "recent_rainfall_mm": 145.7, "adjacent_to_water": false, "changed_area_ratio_source": "pixel_diff", "evidence_confidence_json": { "level": "높음", "score": 3, "factors": [ { "label": "유효 광학 장면 충분", "effect": 1, "detail": "현재기간 3장" }, { "label": "기준기간 관측 충분", "effect": 1, "detail": "기준기간 3장" }, { "label": "영상 품질 양호", "effect": 1, "detail": "현재기간 평균 구름 4%" }, { "label": "변화면적 픽셀 실측", "effect": 1, "detail": "NDVI 픽셀 단위 차분으로 직접 측정" }, { "label": "강우 교란 가능성", "effect": -1, "detail": "최근 14일 146mm 강우 + 습윤 신호 — 기상에 의한 변화일 수 있음" } ] }, "chg_status": "ok", "contributing_factors_json": [ { "factor": "anomaly_score_mean", "value": 0.183, "weight": 0.3 }, { "factor": "changed_area_ratio", "value": 0.0, "weight": 0.15 }, { "factor": "sar_anomaly_mean", "value": 0.488, "weight": 0.1 }, { "factor": "recent_rainfall_mm", "value": 145.7, "weight": 0.1 }, { "factor": "adjacent_to_water", "value": false, "weight": 0.1 } ], "baseline_scenes_json": [ { "source": "sentinel2", "acquisition_date": "2024-06-10", "cloud_cover_pct": 0, "indices": { "ndvi_mean": 0.9098, "ndmi_mean": 0.3623 } }, { "source": "sentinel2", "acquisition_date": "2024-07-10", "cloud_cover_pct": 0, "indices": { "ndvi_mean": 0.7353, "ndmi_mean": 0.2708 } }, { "source": "sentinel2", "acquisition_date": "2024-08-04", "cloud_cover_pct": 0, "indices": { "ndvi_mean": 0.9082, "ndmi_mean": 0.2868 } } ], "current_scenes_json": [ { "source": "sentinel2", "acquisition_date": "2026-06-05", "cloud_cover_pct": 0, "indices": { "ndvi_mean": 0.9169, "ndmi_mean": 0.4346 } }, { "source": "sentinel2", "acquisition_date": "2026-06-10", "cloud_cover_pct": 12.4, "indices": { "ndvi_mean": 0.721, "ndmi_mean": 0.3556 } }, { "source": "sentinel2", "acquisition_date": "2026-06-15", "cloud_cover_pct": 0, "indices": { "ndvi_mean": 0.8933, "ndmi_mean": 0.4048 } } ] }, "geometry": { "type": "MultiPolygon", "coordinates": [ [ [ [ 973966.668368607526645, 1917924.49302337365225 ], [ 973958.613373265485279, 1917927.684347568079829 ], [ 973943.330245434073731, 1917921.802407174138352 ], [ 973941.65088446973823, 1917924.827103085117415 ], [ 973947.60655726888217, 1917930.313490514177829 ], [ 973954.001370644546114, 1917939.454132806509733 ], [ 973957.634470801916905, 1917940.876378494780511 ], [ 973962.81416329019703, 1917942.903215168276802 ], [ 973967.529072613222525, 1917944.747579212998971 ], [ 973977.275836142478511, 1917942.961766400840133 ], [ 973985.679423123016022, 1917941.421956094680354 ], [ 973989.935291309142485, 1917933.763450689380988 ], [ 973991.257208617054857, 1917931.385391803458333 ], [ 974006.184052873984911, 1917933.213794988114387 ], [ 974012.686357473139651, 1917938.292452227557078 ], [ 974017.256289034965448, 1917940.887289800448343 ], [ 974019.04195251443889, 1917941.901457673171535 ], [ 974020.388902217615396, 1917940.099042066605762 ], [ 974012.89330945268739, 1917934.324905351735651 ], [ 974000.332567679462954, 1917926.067504376871511 ], [ 973990.72606470703613, 1917918.830093351425603 ], [ 973979.549990749568678, 1917923.479343021987006 ], [ 973966.668368607526645, 1917924.49302337365225 ] ] ] ] } },
{ "type": "Feature", "properties": { "rank": 9, "site_id": "YUBANG_4146110500100750000", "pnu": "4146110500100750000", "jibun": "75전", "addr": "경기도 용인시 처인구 유방동 75", "inspection_priority_score": 27, "priority_tier": "정상", "weight_coverage": 0.75, "anomaly_score": 0.077, "change_type_hint": "no_significant_change", "sar_vv_delta": -2.456, "recent_rainfall_mm": 145.7, "adjacent_to_water": false, "changed_area_ratio_source": "pixel_diff", "evidence_confidence_json": { "level": "보통", "score": 1, "factors": [ { "label": "유효 광학 장면 충분", "effect": 1, "detail": "현재기간 3장" }, { "label": "기준기간 관측 충분", "effect": 1, "detail": "기준기간 3장" }, { "label": "영상 품질 양호", "effect": 1, "detail": "현재기간 평균 구름 0%" }, { "label": "NDVI·NDMI 방향 불일치", "effect": -1, "detail": "식생과 수분 지표가 반대로 움직임" }, { "label": "광학·SAR 센서 불일치", "effect": -1, "detail": "두 센서가 다른 방향을 가리킴" }, { "label": "변화면적 픽셀 실측", "effect": 1, "detail": "NDVI 픽셀 단위 차분으로 직접 측정" }, { "label": "강우 교란 가능성", "effect": -1, "detail": "최근 14일 146mm 강우 + 습윤 신호 — 기상에 의한 변화일 수 있음" } ] }, "chg_status": "ok", "contributing_factors_json": [ { "factor": "anomaly_score_mean", "value": 0.077, "weight": 0.3 }, { "factor": "changed_area_ratio", "value": 0.0, "weight": 0.15 }, { "factor": "sar_anomaly_mean", "value": 0.819, "weight": 0.1 }, { "factor": "recent_rainfall_mm", "value": 145.7, "weight": 0.1 }, { "factor": "adjacent_to_water", "value": false, "weight": 0.1 } ], "baseline_scenes_json": [ { "source": "sentinel2", "acquisition_date": "2024-06-10", "cloud_cover_pct": 0, "indices": { "ndvi_mean": 0.8054, "ndmi_mean": 0.2744 } }, { "source": "sentinel2", "acquisition_date": "2024-07-10", "cloud_cover_pct": 0, "indices": { "ndvi_mean": 0.7263, "ndmi_mean": 0.2622 } }, { "source": "sentinel2", "acquisition_date": "2024-08-04", "cloud_cover_pct": 0, "indices": { "ndvi_mean": 0.7992, "ndmi_mean": 0.2528 } } ], "current_scenes_json": [ { "source": "sentinel2", "acquisition_date": "2026-06-05", "cloud_cover_pct": 0, "indices": { "ndvi_mean": 0.8087, "ndmi_mean": 0.346 } }, { "source": "sentinel2", "acquisition_date": "2026-06-10", "cloud_cover_pct": 0, "indices": { "ndvi_mean": 0.6475, "ndmi_mean": 0.2691 } }, { "source": "sentinel2", "acquisition_date": "2026-06-15", "cloud_cover_pct": 0, "indices": { "ndvi_mean": 0.7859, "ndmi_mean": 0.2901 } } ] }, "geometry": { "type": "MultiPolygon", "coordinates": [ [ [ [ 973826.039578224415891, 1917848.879668117966503 ], [ 973829.494274863391183, 1917846.806219377089292 ], [ 973836.363131415331736, 1917843.690134370932356 ], [ 973844.525974315940402, 1917838.963838681578636 ], [ 973847.396825508680195, 1917835.551996955648065 ], [ 973831.104578725527972, 1917839.602516594575718 ], [ 973821.89705415267963, 1917842.609003220219165 ], [ 973826.039578224415891, 1917848.879668117966503 ] ] ] ] } },
{ "type": "Feature", "properties": { "rank": 10, "site_id": "YUBANG_4146110500100710001", "pnu": "4146110500100710001", "jibun": "71-1대", "addr": "경기도 용인시 처인구 유방동 71-1", "inspection_priority_score": 20, "priority_tier": "정상", "weight_coverage": 0.75, "anomaly_score": 0.054, "change_type_hint": "no_significant_change", "sar_vv_delta": 0.907, "recent_rainfall_mm": 145.7, "adjacent_to_water": false, "changed_area_ratio_source": "pixel_diff", "evidence_confidence_json": { "level": "높음", "score": 4, "factors": [ { "label": "유효 광학 장면 부족", "effect": -1, "detail": "현재기간 2장(기준 3장)" }, { "label": "기준기간 관측 충분", "effect": 1, "detail": "기준기간 3장" }, { "label": "영상 품질 양호", "effect": 1, "detail": "현재기간 평균 구름 0%" }, { "label": "광학·SAR 센서 일치", "effect": 2, "detail": "서로 다른 센서가 같은 변화를 가리킴" }, { "label": "변화면적 픽셀 실측", "effect": 1, "detail": "NDVI 픽셀 단위 차분으로 직접 측정" } ] }, "chg_status": "ok", "contributing_factors_json": [ { "factor": "anomaly_score_mean", "value": 0.054, "weight": 0.3 }, { "factor": "changed_area_ratio", "value": 0.0, "weight": 0.15 }, { "factor": "sar_anomaly_mean", "value": 0.302, "weight": 0.1 }, { "factor": "recent_rainfall_mm", "value": 145.7, "weight": 0.1 }, { "factor": "adjacent_to_water", "value": false, "weight": 0.1 } ], "baseline_scenes_json": [ { "source": "sentinel2", "acquisition_date": "2024-06-10", "cloud_cover_pct": 0, "indices": { "ndvi_mean": 0.7974, "ndmi_mean": 0.2916 } }, { "source": "sentinel2", "acquisition_date": "2024-07-10", "cloud_cover_pct": 0, "indices": { "ndvi_mean": 0.7641, "ndmi_mean": 0.2763 } }, { "source": "sentinel2", "acquisition_date": "2024-08-04", "cloud_cover_pct": 0.1, "indices": { "ndvi_mean": 0.8272, "ndmi_mean": 0.2624 } } ], "current_scenes_json": [ { "source": "sentinel2", "acquisition_date": "2026-06-05", "cloud_cover_pct": 0, "indices": { "ndvi_mean": 0.7866, "ndmi_mean": 0.3212 } }, { "source": "sentinel2", "acquisition_date": "2026-06-15", "cloud_cover_pct": 0, "indices": { "ndvi_mean": 0.7521, "ndmi_mean": 0.2264 } } ] }, "geometry": { "type": "MultiPolygon", "coordinates": [ [ [ [ 973715.131661031395197, 1917892.189902781974524 ], [ 973717.812978110276163, 1917891.879853686550632 ], [ 973725.502959496458061, 1917891.118511255364865 ], [ 973731.922935286187567, 1917891.776327612577006 ], [ 973735.676848414121196, 1917896.956471468321979 ], [ 973738.632410274469294, 1917902.389735678210855 ], [ 973759.923849930753931, 1917896.662448602728546 ], [ 973764.719669976388104, 1917890.737412715097889 ], [ 973766.87114063964691, 1917882.091411374043673 ], [ 973765.149562128121033, 1917874.664402870694175 ], [ 973760.925207531312481, 1917868.609086154028773 ], [ 973750.525029004667886, 1917873.864000195637345 ], [ 973732.382137859705836, 1917882.008705998305231 ], [ 973715.131661031395197, 1917892.189902781974524 ] ] ] ] } }
]
}
